<?xml version="1.0" encoding="UTF-8"?><TrainingCenterDatabase xsi:schemaLocation="http://www.garmin.com/xmlschemas/TrainingCenterDatabase/v2 http://www.garmin.com/xmlschemas/TrainingCenterDatabasev2.xsd" xmlns:ns5="http://www.garmin.com/xmlschemas/ActivityGoals/v1" xmlns:ns3="http://www.garmin.com/xmlschemas/ActivityExtension/v2" xmlns:ns2="http://www.garmin.com/xmlschemas/UserProfile/v2" xmlns="http://www.garmin.com/xmlschemas/TrainingCenterDatabase/v2" xmlns:xsi="http://www.w3.org/2001/XMLSchema-instance"><Activities><Activity Sport="Biking"><Id>2026-04-06T07:40:07+00:00</Id><Lap StartTime="2026-04-06T07:40:07+00:00"><TotalTimeSeconds>224</TotalTimeSeconds><DistanceMeters>559.86</DistanceMeters><Track><Trackpoint><Time>2026-04-06T07:40:07+00:00</Time><Position><LatitudeDegrees>51.12186</LatitudeDegrees><LongitudeDegrees>2.647942</LongitudeDegrees></Position><AltitudeMeters>8.5</AltitudeMeters><Extensions><TPX xmlns="http://www.garmin.com/xmlschemas/ActivityExtension/v2"><Speed>0.0</Speed></TPX></Extensions></Trackpoint><Trackpoint><Time>2026-04-06T07:40:08+00:00</Time><DistanceMeters>2.2</DistanceMeters><Position><LatitudeDegrees>51.121852</LatitudeDegrees><LongitudeDegrees>2.64792</LongitudeDegrees></Position><AltitudeMeters>8.5</AltitudeMeters><Extensions><TPX xmlns="http://www.garmin.com/xmlschemas/ActivityExtension/v2"><Speed>0.0</Speed></TPX></Extensions></Trackpoint><Trackpoint><Time>2026-04-06T07:40:09+00:00</Time><DistanceMeters>4.3</DistanceMeters><Position><LatitudeDegrees>51.121848</LatitudeDegrees><LongitudeDegrees>2.64791</LongitudeDegrees></Position><AltitudeMeters>8.5</AltitudeMeters><Cadence>105</Cadence><Extensions><TPX xmlns="http://www.garmin.com/xmlschemas/ActivityExtension/v2"><Speed>2.15</Speed></TPX></Extensions></Trackpoint><Trackpoint><Time>2026-04-06T07:40:10+00:00</Time><DistanceMeters>6.7</DistanceMeters><Position><LatitudeDegrees>51.121838</LatitudeDegrees><LongitudeDegrees>2.647868</LongitudeDegrees></Position><AltitudeMeters>8.5</AltitudeMeters><Cadence>105</Cadence><Extensions><TPX xmlns="http://www.garmin.com/xmlschemas/ActivityExtension/v2"><Speed>2.233</Speed></TPX></Extensions></Trackpoint><Trackpoint><Time>2026-04-06T07:40:11+00:00</Time><DistanceMeters>9.1</DistanceMeters><Position><LatitudeDegrees>51.121834</LatitudeDegrees><LongitudeDegrees>2.647847</LongitudeDegrees></Position><AltitudeMeters>8.5</AltitudeMeters><Cadence>120</Cadence><Extensions><TPX xmlns="http://www.garmin.com/xmlschemas/ActivityExtension/v2"><Speed>2.275</Speed></TPX></Extensions></Trackpoint><Trackpoint><Time>2026-04-06T07:40:12+00:00</Time><DistanceMeters>13.5</DistanceMeters><Position><LatitudeDegrees>51.121826</LatitudeDegrees><LongitudeDegrees>2.647785</LongitudeDegrees></Position><AltitudeMeters>8.5</AltitudeMeters><Cadence>120</Cadence><Extensions><TPX xmlns="http://www.garmin.com/xmlschemas/ActivityExtension/v2"><Speed>2.7</Speed></TPX></Extensions></Trackpoint><Trackpoint><Time>2026-04-06T07:40:13+00:00</Time><DistanceMeters>15.8</DistanceMeters><Position><LatitudeDegrees>51.121818</LatitudeDegrees><LongitudeDegrees>2.647733</LongitudeDegrees></Position><AltitudeMeters>8.5</AltitudeMeters><Cadence>210</Cadence><Extensions><TPX xmlns="http://www.garmin.com/xmlschemas/ActivityExtension/v2"><Speed>2.737</Speed></TPX></Extensions></Trackpoint><Trackpoint><Time>2026-04-06T07:40:14+00:00</Time><DistanceMeters>18.2</DistanceMeters><Position><LatitudeDegrees>51.121816</LatitudeDegrees><LongitudeDegrees>2.647709</LongitudeDegrees></Position><AltitudeMeters>8.5</AltitudeMeters><Cadence>210</Cadence><Extensions><TPX xmlns="http://www.garmin.com/xmlschemas/ActivityExtension/v2"><Speed>2.773</Speed></TPX></Extensions></Trackpoint><Trackpoint><Time>2026-04-06T07:40:15+00:00</Time><DistanceMeters>20.5</DistanceMeters><Position><LatitudeDegrees>51.121813</LatitudeDegrees><LongitudeDegrees>2.647686</LongitudeDegrees></Position><AltitudeMeters>8.6</AltitudeMeters><Cadence>105</Cadence><Extensions><TPX xmlns="http://www.garmin.com/xmlschemas/ActivityExtension/v2"><Speed>2.76</Speed></TPX></Extensions></Trackpoint><Trackpoint><Time>2026-04-06T07:40:16+00:00</Time><DistanceMeters>24.7</DistanceMeters><Position><LatitudeDegrees>51.121798</LatitudeDegrees><LongitudeDegrees>2.647631</LongitudeDegrees></Position><AltitudeMeters>8.6</AltitudeMeters><Cadence>105</Cadence><Extensions><TPX xmlns="http://www.garmin.com/xmlschemas/ActivityExtension/v2"><Speed>3.12</Speed></TPX></Extensions></Trackpoint><Trackpoint><Time>2026-04-06T07:40:17+00:00</Time><DistanceMeters>28.4</DistanceMeters><Position><LatitudeDegrees>51.121786</LatitudeDegrees><LongitudeDegrees>2.647581</LongitudeDegrees></Position><AltitudeMeters>8.6</AltitudeMeters><Cadence>105</Cadence><Extensions><TPX xmlns="http://www.garmin.com/xmlschemas/ActivityExtension/v2"><Speed>2.98</Speed></TPX></Extensions></Trackpoint><Trackpoint><Time>2026-04-06T07:40:18+00:00</Time><DistanceMeters>32.3</DistanceMeters><Position><LatitudeDegrees>51.121771</LatitudeDegrees><LongitudeDegrees>2.64753</LongitudeDegrees></Position><AltitudeMeters>8.6</AltitudeMeters><Cadence>105</Cadence><Extensions><TPX xmlns="http://www.garmin.com/xmlschemas/ActivityExtension/v2"><Speed>3.293</Speed></TPX></Extensions></Trackpoint><Trackpoint><Time>2026-04-06T07:40:19+00:00</Time><DistanceMeters>35.5</DistanceMeters><Position><LatitudeDegrees>51.121762</LatitudeDegrees><LongitudeDegrees>2.647487</LongitudeDegrees></Position><AltitudeMeters>8.6</AltitudeMeters><Cadence>105</Cadence><Extensions><TPX xmlns="http://www.garmin.com/xmlschemas/ActivityExtension/v2"><Speed>3.467</Speed></TPX></Extensions></Trackpoint><Trackpoint><Time>2026-04-06T07:40:20+00:00</Time><DistanceMeters>39.3</DistanceMeters><Position><LatitudeDegrees>51.121752</LatitudeDegrees><LongitudeDegrees>2.647435</LongitudeDegrees></Position><AltitudeMeters>8.6</AltitudeMeters><Cadence>105</Cadence><Extensions><TPX xmlns="http://www.garmin.com/xmlschemas/ActivityExtension/v2"><Speed>3.76</Speed></TPX></Extensions></Trackpoint><Trackpoint><Time>2026-04-06T07:40:21+00:00</Time><DistanceMeters>43.1</DistanceMeters><Position><LatitudeDegrees>51.121745</LatitudeDegrees><LongitudeDegrees>2.647382</LongitudeDegrees></Position><AltitudeMeters>8.7</AltitudeMeters><Extensions><TPX xmlns="http://www.garmin.com/xmlschemas/ActivityExtension/v2"><Speed>3.68</Speed></TPX></Extensions></Trackpoint><Trackpoint><Time>2026-04-06T07:40:22+00:00</Time><DistanceMeters>49.3</DistanceMeters><Position><LatitudeDegrees>51.12173</LatitudeDegrees><LongitudeDegrees>2.647297</LongitudeDegrees></Position><AltitudeMeters>8.7</AltitudeMeters><Extensions><TPX xmlns="http://www.garmin.com/xmlschemas/ActivityExtension/v2"><Speed>4.18</Speed></TPX></Extensions></Trackpoint><Trackpoint><Time>2026-04-06T07:40:23+00:00</Time><DistanceMeters>52.8</DistanceMeters><Position><LatitudeDegrees>51.121717</LatitudeDegrees><LongitudeDegrees>2.647228</LongitudeDegrees></Position><AltitudeMeters>8.7</AltitudeMeters><Extensions><TPX xmlns="http://www.garmin.com/xmlschemas/ActivityExtension/v2"><Speed>4.1</Speed></TPX></Extensions></Trackpoint><Trackpoint><Time>2026-04-06T07:40:24+00:00</Time><DistanceMeters>56.3</DistanceMeters><Position><LatitudeDegrees>51.121711</LatitudeDegrees><LongitudeDegrees>2.647201</LongitudeDegrees></Position><AltitudeMeters>8.8</AltitudeMeters><Extensions><TPX xmlns="http://www.garmin.com/xmlschemas/ActivityExtension/v2"><Speed>4.16</Speed></TPX></Extensions></Trackpoint><Trackpoint><Time>2026-04-06T07:40:25+00:00</Time><DistanceMeters>59.7</DistanceMeters><Position><LatitudeDegrees>51.121697</LatitudeDegrees><LongitudeDegrees>2.647158</LongitudeDegrees></Position><AltitudeMeters>8.8</AltitudeMeters><Extensions><TPX xmlns="http://www.garmin.com/xmlschemas/ActivityExtension/v2"><Speed>4.08</Speed></TPX></Extensions></Trackpoint><Trackpoint><Time>2026-04-06T07:40:26+00:00</Time><DistanceMeters>62.9</DistanceMeters><Position><LatitudeDegrees>51.121684</LatitudeDegrees><LongitudeDegrees>2.647095</LongitudeDegrees></Position><AltitudeMeters>8.8</AltitudeMeters><Extensions><TPX xmlns="http://www.garmin.com/xmlschemas/ActivityExtension/v2"><Speed>3.95</Speed></TPX></Extensions></Trackpoint><Trackpoint><Time>2026-04-06T07:40:27+00:00</Time><DistanceMeters>66.0</DistanceMeters><Position><LatitudeDegrees>51.121679</LatitudeDegrees><LongitudeDegrees>2.647072</LongitudeDegrees></Position><AltitudeMeters>8.8</AltitudeMeters><Extensions><TPX xmlns="http://www.garmin.com/xmlschemas/ActivityExtension/v2"><Speed>3.34</Speed></TPX></Extensions></Trackpoint><Trackpoint><Time>2026-04-06T07:40:28+00:00</Time><DistanceMeters>69.5</DistanceMeters><Position><LatitudeDegrees>51.12167</LatitudeDegrees><LongitudeDegrees>2.647024</LongitudeDegrees></Position><AltitudeMeters>8.8</AltitudeMeters><Extensions><TPX xmlns="http://www.garmin.com/xmlschemas/ActivityExtension/v2"><Speed>3.34</Speed></TPX></Extensions></Trackpoint><Trackpoint><Time>2026-04-06T07:40:29+00:00</Time><DistanceMeters>72.9</DistanceMeters><Position><LatitudeDegrees>51.121661</LatitudeDegrees><LongitudeDegrees>2.646957</LongitudeDegrees></Position><AltitudeMeters>8.9</AltitudeMeters><Extensions><TPX xmlns="http://www.garmin.com/xmlschemas/ActivityExtension/v2"><Speed>3.31</Speed></TPX></Extensions></Trackpoint><Trackpoint><Time>2026-04-06T07:40:30+00:00</Time><DistanceMeters>76.2</DistanceMeters><Position><LatitudeDegrees>51.121658</LatitudeDegrees><LongitudeDegrees>2.64693</LongitudeDegrees></Position><AltitudeMeters>8.9</AltitudeMeters><Extensions><TPX xmlns="http://www.garmin.com/xmlschemas/ActivityExtension/v2"><Speed>3.3</Speed></TPX></Extensions></Trackpoint><Trackpoint><Time>2026-04-06T07:40:31+00:00</Time><DistanceMeters>79.9</DistanceMeters><Position><LatitudeDegrees>51.121651</LatitudeDegrees><LongitudeDegrees>2.646878</LongitudeDegrees></Position><AltitudeMeters>8.9</AltitudeMeters><Extensions><TPX xmlns="http://www.garmin.com/xmlschemas/ActivityExtension/v2"><Speed>3.41</Speed></TPX></Extensions></Trackpoint><Trackpoint><Time>2026-04-06T07:40:32+00:00</Time><DistanceMeters>84.2</DistanceMeters><Position><LatitudeDegrees>51.121644</LatitudeDegrees><LongitudeDegrees>2.646818</LongitudeDegrees></Position><AltitudeMeters>9.0</AltitudeMeters><Extensions><TPX xmlns="http://www.garmin.com/xmlschemas/ActivityExtension/v2"><Speed>3.64</Speed></TPX></Extensions></Trackpoint><Trackpoint><Time>2026-04-06T07:40:33+00:00</Time><DistanceMeters>88.2</DistanceMeters><Position><LatitudeDegrees>51.12164</LatitudeDegrees><LongitudeDegrees>2.64676</LongitudeDegrees></Position><AltitudeMeters>9.0</AltitudeMeters><Extensions><TPX xmlns="http://www.garmin.com/xmlschemas/ActivityExtension/v2"><Speed>3.74</Speed></TPX></Extensions></Trackpoint><Trackpoint><Time>2026-04-06T07:40:34+00:00</Time><DistanceMeters>92.3</DistanceMeters><Position><LatitudeDegrees>51.121635</LatitudeDegrees><LongitudeDegrees>2.646702</LongitudeDegrees></Position><AltitudeMeters>9.1</AltitudeMeters><Extensions><TPX xmlns="http://www.garmin.com/xmlschemas/ActivityExtension/v2"><Speed>3.89</Speed></TPX></Extensions></Trackpoint><Trackpoint><Time>2026-04-06T07:40:35+00:00</Time><DistanceMeters>98.2</DistanceMeters><Position><LatitudeDegrees>51.121623</LatitudeDegrees><LongitudeDegrees>2.646621</LongitudeDegrees></Position><AltitudeMeters>9.1</AltitudeMeters><Extensions><TPX xmlns="http://www.garmin.com/xmlschemas/ActivityExtension/v2"><Speed>4.4</Speed></TPX></Extensions></Trackpoint><Trackpoint><Time>2026-04-06T07:40:36+00:00</Time><DistanceMeters>102.5</DistanceMeters><Position><LatitudeDegrees>51.121614</LatitudeDegrees><LongitudeDegrees>2.64656</LongitudeDegrees></Position><AltitudeMeters>9.2</AltitudeMeters><Extensions><TPX xmlns="http://www.garmin.com/xmlschemas/ActivityExtension/v2"><Speed>4.52</Speed></TPX></Extensions></Trackpoint><Trackpoint><Time>2026-04-06T07:40:37+00:00</Time><DistanceMeters>105.5</DistanceMeters><Position><LatitudeDegrees>51.121605</LatitudeDegrees><LongitudeDegrees>2.646499</LongitudeDegrees></Position><AltitudeMeters>9.3</AltitudeMeters><Extensions><TPX xmlns="http://www.garmin.com/xmlschemas/ActivityExtension/v2"><Speed>4.25</Speed></TPX></Extensions></Trackpoint><Trackpoint><Time>2026-04-06T07:40:38+00:00</Time><DistanceMeters>108.4</DistanceMeters><Position><LatitudeDegrees>51.1216</LatitudeDegrees><LongitudeDegrees>2.646478</LongitudeDegrees></Position><AltitudeMeters>9.3</AltitudeMeters><Extensions><TPX xmlns="http://www.garmin.com/xmlschemas/ActivityExtension/v2"><Speed>4.04</Speed></TPX></Extensions></Trackpoint><Trackpoint><Time>2026-04-06T07:40:39+00:00</Time><DistanceMeters>111.3</DistanceMeters><Position><LatitudeDegrees>51.121592</LatitudeDegrees><LongitudeDegrees>2.646418</LongitudeDegrees></Position><AltitudeMeters>9.3</AltitudeMeters><Extensions><TPX xmlns="http://www.garmin.com/xmlschemas/ActivityExtension/v2"><Speed>3.8</Speed></TPX></Extensions></Trackpoint><Trackpoint><Time>2026-04-06T07:40:40+00:00</Time><DistanceMeters>114.2</DistanceMeters><Position><LatitudeDegrees>51.121589</LatitudeDegrees><LongitudeDegrees>2.646398</LongitudeDegrees></Position><AltitudeMeters>9.4</AltitudeMeters><Extensions><TPX xmlns="http://www.garmin.com/xmlschemas/ActivityExtension/v2"><Speed>3.2</Speed></TPX></Extensions></Trackpoint><Trackpoint><Time>2026-04-06T07:40:41+00:00</Time><DistanceMeters>117.5</DistanceMeters><Position><LatitudeDegrees>51.121583</LatitudeDegrees><LongitudeDegrees>2.646351</LongitudeDegrees></Position><AltitudeMeters>9.4</AltitudeMeters><Extensions><TPX xmlns="http://www.garmin.com/xmlschemas/ActivityExtension/v2"><Speed>3.0</Speed></TPX></Extensions></Trackpoint><Trackpoint><Time>2026-04-06T07:40:42+00:00</Time><DistanceMeters>120.8</DistanceMeters><Position><LatitudeDegrees>51.121581</LatitudeDegrees><LongitudeDegrees>2.646304</LongitudeDegrees></Position><AltitudeMeters>9.5</AltitudeMeters><Extensions><TPX xmlns="http://www.garmin.com/xmlschemas/ActivityExtension/v2"><Speed>3.07</Speed></TPX></Extensions></Trackpoint><Trackpoint><Time>2026-04-06T07:40:43+00:00</Time><DistanceMeters>124.1</DistanceMeters><Position><LatitudeDegrees>51.121576</LatitudeDegrees><LongitudeDegrees>2.646236</LongitudeDegrees></Position><AltitudeMeters>9.6</AltitudeMeters><Extensions><TPX xmlns="http://www.garmin.com/xmlschemas/ActivityExtension/v2"><Speed>3.13</Speed></TPX></Extensions></Trackpoint><Trackpoint><Time>2026-04-06T07:40:44+00:00</Time><DistanceMeters>127.3</DistanceMeters><Position><LatitudeDegrees>51.121574</LatitudeDegrees><LongitudeDegrees>2.646211</LongitudeDegrees></Position><AltitudeMeters>9.6</AltitudeMeters><Extensions><TPX xmlns="http://www.garmin.com/xmlschemas/ActivityExtension/v2"><Speed>3.2</Speed></TPX></Extensions></Trackpoint><Trackpoint><Time>2026-04-06T07:40:45+00:00</Time><DistanceMeters>130.7</DistanceMeters><Position><LatitudeDegrees>51.12157</LatitudeDegrees><LongitudeDegrees>2.646163</LongitudeDegrees></Position><AltitudeMeters>9.6</AltitudeMeters><Extensions><TPX xmlns="http://www.garmin.com/xmlschemas/ActivityExtension/v2"><Speed>3.3</Speed></TPX></Extensions></Trackpoint><Trackpoint><Time>2026-04-06T07:40:46+00:00</Time><DistanceMeters>133.7</DistanceMeters><Position><LatitudeDegrees>51.121567</LatitudeDegrees><LongitudeDegrees>2.64612</LongitudeDegrees></Position><AltitudeMeters>9.7</AltitudeMeters><Extensions><TPX xmlns="http://www.garmin.com/xmlschemas/ActivityExtension/v2"><Speed>3.24</Speed></TPX></Extensions></Trackpoint><Trackpoint><Time>2026-04-06T07:40:47+00:00</Time><DistanceMeters>137.2</DistanceMeters><Position><LatitudeDegrees>51.121558</LatitudeDegrees><LongitudeDegrees>2.646072</LongitudeDegrees></Position><AltitudeMeters>9.7</AltitudeMeters><Extensions><TPX xmlns="http://www.garmin.com/xmlschemas/ActivityExtension/v2"><Speed>3.28</Speed></TPX></Extensions></Trackpoint><Trackpoint><Time>2026-04-06T07:40:48+00:00</Time><DistanceMeters>140.1</DistanceMeters><Position><LatitudeDegrees>51.121545</LatitudeDegrees><LongitudeDegrees>2.646014</LongitudeDegrees></Position><AltitudeMeters>9.8</AltitudeMeters><Extensions><TPX xmlns="http://www.garmin.com/xmlschemas/ActivityExtension/v2"><Speed>3.22</Speed></TPX></Extensions></Trackpoint><Trackpoint><Time>2026-04-06T07:40:49+00:00</Time><DistanceMeters>143.1</DistanceMeters><Position><LatitudeDegrees>51.12154</LatitudeDegrees><LongitudeDegrees>2.645993</LongitudeDegrees></Position><AltitudeMeters>9.8</AltitudeMeters><Extensions><TPX xmlns="http://www.garmin.com/xmlschemas/ActivityExtension/v2"><Speed>3.16</Speed></TPX></Extensions></Trackpoint><Trackpoint><Time>2026-04-06T07:40:50+00:00</Time><DistanceMeters>146.3</DistanceMeters><Position><LatitudeDegrees>51.121534</LatitudeDegrees><LongitudeDegrees>2.645949</LongitudeDegrees></Position><AltitudeMeters>9.9</AltitudeMeters><Extensions><TPX xmlns="http://www.garmin.com/xmlschemas/ActivityExtension/v2"><Speed>3.12</Speed></TPX></Extensions></Trackpoint><Trackpoint><Time>2026-04-06T07:40:51+00:00</Time><DistanceMeters>149.4</DistanceMeters><Position><LatitudeDegrees>51.121527</LatitudeDegrees><LongitudeDegrees>2.645906</LongitudeDegrees></Position><AltitudeMeters>10.0</AltitudeMeters><Extensions><TPX xmlns="http://www.garmin.com/xmlschemas/ActivityExtension/v2"><Speed>3.14</Speed></TPX></Extensions></Trackpoint><Trackpoint><Time>2026-04-06T07:40:52+00:00</Time><DistanceMeters>152.4</DistanceMeters><Position><LatitudeDegrees>51.121521</LatitudeDegrees><LongitudeDegrees>2.645863</LongitudeDegrees></Position><AltitudeMeters>10.0</AltitudeMeters><Extensions><TPX xmlns="http://www.garmin.com/xmlschemas/ActivityExtension/v2"><Speed>3.04</Speed></TPX></Extensions></Trackpoint><Trackpoint><Time>2026-04-06T07:40:53+00:00</Time><DistanceMeters>156.0</DistanceMeters><Position><LatitudeDegrees>51.121516</LatitudeDegrees><LongitudeDegrees>2.645812</LongitudeDegrees></Position><AltitudeMeters>10.1</AltitudeMeters><Extensions><TPX xmlns="http://www.garmin.com/xmlschemas/ActivityExtension/v2"><Speed>3.17</Speed></TPX></Extensions></Trackpoint><Trackpoint><Time>2026-04-06T07:40:54+00:00</Time><DistanceMeters>159.5</DistanceMeters><Position><LatitudeDegrees>51.121511</LatitudeDegrees><LongitudeDegrees>2.645763</LongitudeDegrees></Position><AltitudeMeters>10.2</AltitudeMeters><Extensions><TPX xmlns="http://www.garmin.com/xmlschemas/ActivityExtension/v2"><Speed>3.28</Speed></TPX></Extensions></Trackpoint><Trackpoint><Time>2026-04-06T07:40:55+00:00</Time><DistanceMeters>162.9</DistanceMeters><Position><LatitudeDegrees>51.121508</LatitudeDegrees><LongitudeDegrees>2.645715</LongitudeDegrees></Position><AltitudeMeters>10.3</AltitudeMeters><Extensions><TPX xmlns="http://www.garmin.com/xmlschemas/ActivityExtension/v2"><Speed>3.32</Speed></TPX></Extensions></Trackpoint><Trackpoint><Time>2026-04-06T07:40:56+00:00</Time><DistanceMeters>166.3</DistanceMeters><Position><LatitudeDegrees>51.121503</LatitudeDegrees><LongitudeDegrees>2.645666</LongitudeDegrees></Position><AltitudeMeters>10.4</AltitudeMeters><Extensions><TPX xmlns="http://www.garmin.com/xmlschemas/ActivityExtension/v2"><Speed>3.38</Speed></TPX></Extensions></Trackpoint><Trackpoint><Time>2026-04-06T07:40:57+00:00</Time><DistanceMeters>169.4</DistanceMeters><Position><LatitudeDegrees>51.121498</LatitudeDegrees><LongitudeDegrees>2.645601</LongitudeDegrees></Position><AltitudeMeters>10.5</AltitudeMeters><Extensions><TPX xmlns="http://www.garmin.com/xmlschemas/ActivityExtension/v2"><Speed>3.4</Speed></TPX></Extensions></Trackpoint><Trackpoint><Time>2026-04-06T07:40:58+00:00</Time><DistanceMeters>172.5</DistanceMeters><Position><LatitudeDegrees>51.121496</LatitudeDegrees><LongitudeDegrees>2.645578</LongitudeDegrees></Position><AltitudeMeters>10.5</AltitudeMeters><Extensions><TPX xmlns="http://www.garmin.com/xmlschemas/ActivityExtension/v2"><Speed>3.3</Speed></TPX></Extensions></Trackpoint><Trackpoint><Time>2026-04-06T07:40:59+00:00</Time><DistanceMeters>175.6</DistanceMeters><Position><LatitudeDegrees>51.121494</LatitudeDegrees><LongitudeDegrees>2.645534</LongitudeDegrees></Position><AltitudeMeters>10.6</AltitudeMeters><Extensions><TPX xmlns="http://www.garmin.com/xmlschemas/ActivityExtension/v2"><Speed>3.22</Speed></TPX></Extensions></Trackpoint><Trackpoint><Time>2026-04-06T07:41:00+00:00</Time><DistanceMeters>178.6</DistanceMeters><Position><LatitudeDegrees>51.121491</LatitudeDegrees><LongitudeDegrees>2.64549</LongitudeDegrees></Position><AltitudeMeters>10.7</AltitudeMeters><Extensions><TPX xmlns="http://www.garmin.com/xmlschemas/ActivityExtension/v2"><Speed>3.14</Speed></TPX></Extensions></Trackpoint><Trackpoint><Time>2026-04-06T07:41:01+00:00</Time><DistanceMeters>181.6</DistanceMeters><Position><LatitudeDegrees>51.121486</LatitudeDegrees><LongitudeDegrees>2.645427</LongitudeDegrees></Position><AltitudeMeters>10.8</AltitudeMeters><Extensions><TPX xmlns="http://www.garmin.com/xmlschemas/ActivityExtension/v2"><Speed>3.06</Speed></TPX></Extensions></Trackpoint><Trackpoint><Time>2026-04-06T07:41:02+00:00</Time><DistanceMeters>184.6</DistanceMeters><Position><LatitudeDegrees>51.121484</LatitudeDegrees><LongitudeDegrees>2.645405</LongitudeDegrees></Position><AltitudeMeters>10.8</AltitudeMeters><Extensions><TPX xmlns="http://www.garmin.com/xmlschemas/ActivityExtension/v2"><Speed>3.04</Speed></TPX></Extensions></Trackpoint><Trackpoint><Time>2026-04-06T07:41:03+00:00</Time><DistanceMeters>188.0</DistanceMeters><Position><LatitudeDegrees>51.121478</LatitudeDegrees><LongitudeDegrees>2.645358</LongitudeDegrees></Position><AltitudeMeters>10.9</AltitudeMeters><Extensions><TPX xmlns="http://www.garmin.com/xmlschemas/ActivityExtension/v2"><Speed>3.1</Speed></TPX></Extensions></Trackpoint><Trackpoint><Time>2026-04-06T07:41:04+00:00</Time><DistanceMeters>191.1</DistanceMeters><Position><LatitudeDegrees>51.121474</LatitudeDegrees><LongitudeDegrees>2.645314</LongitudeDegrees></Position><AltitudeMeters>11.0</AltitudeMeters><Extensions><TPX xmlns="http://www.garmin.com/xmlschemas/ActivityExtension/v2"><Speed>3.1</Speed></TPX></Extensions></Trackpoint><Trackpoint><Time>2026-04-06T07:41:05+00:00</Time><DistanceMeters>195.1</DistanceMeters><Position><LatitudeDegrees>51.12147</LatitudeDegrees><LongitudeDegrees>2.645258</LongitudeDegrees></Position><AltitudeMeters>11.1</AltitudeMeters><Extensions><TPX xmlns="http://www.garmin.com/xmlschemas/ActivityExtension/v2"><Speed>3.3</Speed></TPX></Extensions></Trackpoint><Trackpoint><Time>2026-04-06T07:41:06+00:00</Time><DistanceMeters>198.6</DistanceMeters><Position><LatitudeDegrees>51.121471</LatitudeDegrees><LongitudeDegrees>2.645207</LongitudeDegrees></Position><AltitudeMeters>11.2</AltitudeMeters><Extensions><TPX xmlns="http://www.garmin.com/xmlschemas/ActivityExtension/v2"><Speed>3.4</Speed></TPX></Extensions></Trackpoint><Trackpoint><Time>2026-04-06T07:41:07+00:00</Time><DistanceMeters>204.0</DistanceMeters><Position><LatitudeDegrees>51.12147</LatitudeDegrees><LongitudeDegrees>2.645129</LongitudeDegrees></Position><AltitudeMeters>11.3</AltitudeMeters><Extensions><TPX xmlns="http://www.garmin.com/xmlschemas/ActivityExtension/v2"><Speed>3.88</Speed></TPX></Extensions></Trackpoint><Trackpoint><Time>2026-04-06T07:41:08+00:00</Time><DistanceMeters>207.3</DistanceMeters><Position><LatitudeDegrees>51.121468</LatitudeDegrees><LongitudeDegrees>2.645083</LongitudeDegrees></Position><AltitudeMeters>11.4</AltitudeMeters><Extensions><TPX xmlns="http://www.garmin.com/xmlschemas/ActivityExtension/v2"><Speed>3.86</Speed></TPX></Extensions></Trackpoint><Trackpoint><Time>2026-04-06T07:41:09+00:00</Time><DistanceMeters>210.8</DistanceMeters><Position><LatitudeDegrees>51.121462</LatitudeDegrees><LongitudeDegrees>2.645033</LongitudeDegrees></Position><AltitudeMeters>11.5</AltitudeMeters><Extensions><TPX xmlns="http://www.garmin.com/xmlschemas/ActivityExtension/v2"><Speed>3.94</Speed></TPX></Extensions></Trackpoint><Trackpoint><Time>2026-04-06T07:41:10+00:00</Time><DistanceMeters>213.4</DistanceMeters><Position><LatitudeDegrees>51.121459</LatitudeDegrees><LongitudeDegrees>2.64498</LongitudeDegrees></Position><AltitudeMeters>11.5</AltitudeMeters><Extensions><TPX xmlns="http://www.garmin.com/xmlschemas/ActivityExtension/v2"><Speed>3.65</Speed></TPX></Extensions></Trackpoint><Trackpoint><Time>2026-04-06T07:41:11+00:00</Time><DistanceMeters>215.9</DistanceMeters><Position><LatitudeDegrees>51.121457</LatitudeDegrees><LongitudeDegrees>2.644961</LongitudeDegrees></Position><AltitudeMeters>11.6</AltitudeMeters><Extensions><TPX xmlns="http://www.garmin.com/xmlschemas/ActivityExtension/v2"><Speed>3.46</Speed></TPX></Extensions></Trackpoint><Trackpoint><Time>2026-04-06T07:41:12+00:00</Time><DistanceMeters>218.7</DistanceMeters><Position><LatitudeDegrees>51.121454</LatitudeDegrees><LongitudeDegrees>2.644903</LongitudeDegrees></Position><AltitudeMeters>11.6</AltitudeMeters><Extensions><TPX xmlns="http://www.garmin.com/xmlschemas/ActivityExtension/v2"><Speed>2.94</Speed></TPX></Extensions></Trackpoint><Trackpoint><Time>2026-04-06T07:41:13+00:00</Time><DistanceMeters>221.5</DistanceMeters><Position><LatitudeDegrees>51.121454</LatitudeDegrees><LongitudeDegrees>2.64488</LongitudeDegrees></Position><AltitudeMeters>11.7</AltitudeMeters><Extensions><TPX xmlns="http://www.garmin.com/xmlschemas/ActivityExtension/v2"><Speed>2.84</Speed></TPX></Extensions></Trackpoint><Trackpoint><Time>2026-04-06T07:41:14+00:00</Time><DistanceMeters>224.6</DistanceMeters><Position><LatitudeDegrees>51.12146</LatitudeDegrees><LongitudeDegrees>2.644816</LongitudeDegrees></Position><AltitudeMeters>11.8</AltitudeMeters><Extensions><TPX xmlns="http://www.garmin.com/xmlschemas/ActivityExtension/v2"><Speed>2.75</Speed></TPX></Extensions></Trackpoint><Trackpoint><Time>2026-04-06T07:41:15+00:00</Time><DistanceMeters>227.6</DistanceMeters><Position><LatitudeDegrees>51.121462</LatitudeDegrees><LongitudeDegrees>2.644794</LongitudeDegrees></Position><AltitudeMeters>11.8</AltitudeMeters><Extensions><TPX xmlns="http://www.garmin.com/xmlschemas/ActivityExtension/v2"><Speed>2.85</Speed></TPX></Extensions></Trackpoint><Trackpoint><Time>2026-04-06T07:41:16+00:00</Time><DistanceMeters>230.4</DistanceMeters><Position><LatitudeDegrees>51.121472</LatitudeDegrees><LongitudeDegrees>2.644736</LongitudeDegrees></Position><AltitudeMeters>11.8</AltitudeMeters><Extensions><TPX xmlns="http://www.garmin.com/xmlschemas/ActivityExtension/v2"><Speed>2.9</Speed></TPX></Extensions></Trackpoint><Trackpoint><Time>2026-04-06T07:41:17+00:00</Time><DistanceMeters>233.2</DistanceMeters><Position><LatitudeDegrees>51.121473</LatitudeDegrees><LongitudeDegrees>2.644716</LongitudeDegrees></Position><AltitudeMeters>11.9</AltitudeMeters><Extensions><TPX xmlns="http://www.garmin.com/xmlschemas/ActivityExtension/v2"><Speed>2.9</Speed></TPX></Extensions></Trackpoint><Trackpoint><Time>2026-04-06T07:41:18+00:00</Time><DistanceMeters>236.0</DistanceMeters><Position><LatitudeDegrees>51.121469</LatitudeDegrees><LongitudeDegrees>2.644655</LongitudeDegrees></Position><AltitudeMeters>11.9</AltitudeMeters><Extensions><TPX xmlns="http://www.garmin.com/xmlschemas/ActivityExtension/v2"><Speed>2.9</Speed></TPX></Extensions></Trackpoint><Trackpoint><Time>2026-04-06T07:41:19+00:00</Time><DistanceMeters>238.8</DistanceMeters><Position><LatitudeDegrees>51.121466</LatitudeDegrees><LongitudeDegrees>2.644636</LongitudeDegrees></Position><AltitudeMeters>11.9</AltitudeMeters><Extensions><TPX xmlns="http://www.garmin.com/xmlschemas/ActivityExtension/v2"><Speed>2.85</Speed></TPX></Extensions></Trackpoint><Trackpoint><Time>2026-04-06T07:41:20+00:00</Time><DistanceMeters>241.5</DistanceMeters><Position><LatitudeDegrees>51.121447</LatitudeDegrees><LongitudeDegrees>2.644586</LongitudeDegrees></Position><AltitudeMeters>12.0</AltitudeMeters><Extensions><TPX xmlns="http://www.garmin.com/xmlschemas/ActivityExtension/v2"><Speed>2.78</Speed></TPX></Extensions></Trackpoint><Trackpoint><Time>2026-04-06T07:41:21+00:00</Time><DistanceMeters>244.2</DistanceMeters><Position><LatitudeDegrees>51.121438</LatitudeDegrees><LongitudeDegrees>2.644572</LongitudeDegrees></Position><AltitudeMeters>12.0</AltitudeMeters><Extensions><TPX xmlns="http://www.garmin.com/xmlschemas/ActivityExtension/v2"><Speed>2.76</Speed></TPX></Extensions></Trackpoint><Trackpoint><Time>2026-04-06T07:41:22+00:00</Time><DistanceMeters>247.1</DistanceMeters><Position><LatitudeDegrees>51.121423</LatitudeDegrees><LongitudeDegrees>2.644516</LongitudeDegrees></Position><AltitudeMeters>12.0</AltitudeMeters><Extensions><TPX xmlns="http://www.garmin.com/xmlschemas/ActivityExtension/v2"><Speed>2.77</Speed></TPX></Extensions></Trackpoint><Trackpoint><Time>2026-04-06T07:41:23+00:00</Time><DistanceMeters>249.9</DistanceMeters><Position><LatitudeDegrees>51.12142</LatitudeDegrees><LongitudeDegrees>2.644496</LongitudeDegrees></Position><AltitudeMeters>12.0</AltitudeMeters><Extensions><TPX xmlns="http://www.garmin.com/xmlschemas/ActivityExtension/v2"><Speed>2.78</Speed></TPX></Extensions></Trackpoint><Trackpoint><Time>2026-04-06T07:41:24+00:00</Time><DistanceMeters>252.7</DistanceMeters><Position><LatitudeDegrees>51.121414</LatitudeDegrees><LongitudeDegrees>2.644437</LongitudeDegrees></Position><AltitudeMeters>12.0</AltitudeMeters><Extensions><TPX xmlns="http://www.garmin.com/xmlschemas/ActivityExtension/v2"><Speed>2.77</Speed></TPX></Extensions></Trackpoint><Trackpoint><Time>2026-04-06T07:41:25+00:00</Time><DistanceMeters>255.4</DistanceMeters><Position><LatitudeDegrees>51.121412</LatitudeDegrees><LongitudeDegrees>2.644419</LongitudeDegrees></Position><AltitudeMeters>12.1</AltitudeMeters><Extensions><TPX xmlns="http://www.garmin.com/xmlschemas/ActivityExtension/v2"><Speed>2.78</Speed></TPX></Extensions></Trackpoint><Trackpoint><Time>2026-04-06T07:41:26+00:00</Time><DistanceMeters>258.7</DistanceMeters><Position><LatitudeDegrees>51.121411</LatitudeDegrees><LongitudeDegrees>2.644371</LongitudeDegrees></Position><AltitudeMeters>12.1</AltitudeMeters><Extensions><TPX xmlns="http://www.garmin.com/xmlschemas/ActivityExtension/v2"><Speed>2.9</Speed></TPX></Extensions></Trackpoint><Trackpoint><Time>2026-04-06T07:41:27+00:00</Time><DistanceMeters>262.3</DistanceMeters><Position><LatitudeDegrees>51.121413</LatitudeDegrees><LongitudeDegrees>2.64432</LongitudeDegrees></Position><AltitudeMeters>12.0</AltitudeMeters><Extensions><TPX xmlns="http://www.garmin.com/xmlschemas/ActivityExtension/v2"><Speed>3.05</Speed></TPX></Extensions></Trackpoint><Trackpoint><Time>2026-04-06T07:41:28+00:00</Time><DistanceMeters>265.4</DistanceMeters><Position><LatitudeDegrees>51.121413</LatitudeDegrees><LongitudeDegrees>2.644275</LongitudeDegrees></Position><AltitudeMeters>12.0</AltitudeMeters><Extensions><TPX xmlns="http://www.garmin.com/xmlschemas/ActivityExtension/v2"><Speed>3.1</Speed></TPX></Extensions></Trackpoint><Trackpoint><Time>2026-04-06T07:41:29+00:00</Time><DistanceMeters>268.5</DistanceMeters><Position><LatitudeDegrees>51.121411</LatitudeDegrees><LongitudeDegrees>2.644231</LongitudeDegrees></Position><AltitudeMeters>12.0</AltitudeMeters><Extensions><TPX xmlns="http://www.garmin.com/xmlschemas/ActivityExtension/v2"><Speed>3.17</Speed></TPX></Extensions></Trackpoint><Trackpoint><Time>2026-04-06T07:41:30+00:00</Time><DistanceMeters>271.9</DistanceMeters><Position><LatitudeDegrees>51.121409</LatitudeDegrees><LongitudeDegrees>2.644183</LongitudeDegrees></Position><AltitudeMeters>11.9</AltitudeMeters><Extensions><TPX xmlns="http://www.garmin.com/xmlschemas/ActivityExtension/v2"><Speed>3.3</Speed></TPX></Extensions></Trackpoint><Trackpoint><Time>2026-04-06T07:41:31+00:00</Time><DistanceMeters>275.3</DistanceMeters><Position><LatitudeDegrees>51.121406</LatitudeDegrees><LongitudeDegrees>2.644134</LongitudeDegrees></Position><AltitudeMeters>11.9</AltitudeMeters><Extensions><TPX xmlns="http://www.garmin.com/xmlschemas/ActivityExtension/v2"><Speed>3.32</Speed></TPX></Extensions></Trackpoint><Trackpoint><Time>2026-04-06T07:41:32+00:00</Time><DistanceMeters>278.5</DistanceMeters><Position><LatitudeDegrees>51.121403</LatitudeDegrees><LongitudeDegrees>2.644089</LongitudeDegrees></Position><AltitudeMeters>11.9</AltitudeMeters><Extensions><TPX xmlns="http://www.garmin.com/xmlschemas/ActivityExtension/v2"><Speed>3.24</Speed></TPX></Extensions></Trackpoint><Trackpoint><Time>2026-04-06T07:41:33+00:00</Time><DistanceMeters>281.7</DistanceMeters><Position><LatitudeDegrees>51.121398</LatitudeDegrees><LongitudeDegrees>2.644044</LongitudeDegrees></Position><AltitudeMeters>11.8</AltitudeMeters><Extensions><TPX xmlns="http://www.garmin.com/xmlschemas/ActivityExtension/v2"><Speed>3.26</Speed></TPX></Extensions></Trackpoint><Trackpoint><Time>2026-04-06T07:41:34+00:00</Time><DistanceMeters>285.1</DistanceMeters><Position><LatitudeDegrees>51.121395</LatitudeDegrees><LongitudeDegrees>2.643995</LongitudeDegrees></Position><AltitudeMeters>11.8</AltitudeMeters><Extensions><TPX xmlns="http://www.garmin.com/xmlschemas/ActivityExtension/v2"><Speed>3.32</Speed></TPX></Extensions></Trackpoint><Trackpoint><Time>2026-04-06T07:41:35+00:00</Time><DistanceMeters>288.2</DistanceMeters><Position><LatitudeDegrees>51.121394</LatitudeDegrees><LongitudeDegrees>2.643951</LongitudeDegrees></Position><AltitudeMeters>11.7</AltitudeMeters><Extensions><TPX xmlns="http://www.garmin.com/xmlschemas/ActivityExtension/v2"><Speed>3.26</Speed></TPX></Extensions></Trackpoint><Trackpoint><Time>2026-04-06T07:41:36+00:00</Time><DistanceMeters>291.2</DistanceMeters><Position><LatitudeDegrees>51.121392</LatitudeDegrees><LongitudeDegrees>2.643887</LongitudeDegrees></Position><AltitudeMeters>11.6</AltitudeMeters><Extensions><TPX xmlns="http://www.garmin.com/xmlschemas/ActivityExtension/v2"><Speed>3.18</Speed></TPX></Extensions></Trackpoint><Trackpoint><Time>2026-04-06T07:41:37+00:00</Time><DistanceMeters>294.2</DistanceMeters><Position><LatitudeDegrees>51.121391</LatitudeDegrees><LongitudeDegrees>2.643864</LongitudeDegrees></Position><AltitudeMeters>11.6</AltitudeMeters><Extensions><TPX xmlns="http://www.garmin.com/xmlschemas/ActivityExtension/v2"><Speed>3.14</Speed></TPX></Extensions></Trackpoint><Trackpoint><Time>2026-04-06T07:41:38+00:00</Time><DistanceMeters>297.3</DistanceMeters><Position><LatitudeDegrees>51.121391</LatitudeDegrees><LongitudeDegrees>2.64382</LongitudeDegrees></Position><AltitudeMeters>11.6</AltitudeMeters><Extensions><TPX xmlns="http://www.garmin.com/xmlschemas/ActivityExtension/v2"><Speed>3.12</Speed></TPX></Extensions></Trackpoint><Trackpoint><Time>2026-04-06T07:41:39+00:00</Time><DistanceMeters>300.3</DistanceMeters><Position><LatitudeDegrees>51.121393</LatitudeDegrees><LongitudeDegrees>2.643757</LongitudeDegrees></Position><AltitudeMeters>11.5</AltitudeMeters><Extensions><TPX xmlns="http://www.garmin.com/xmlschemas/ActivityExtension/v2"><Speed>3.04</Speed></TPX></Extensions></Trackpoint><Trackpoint><Time>2026-04-06T07:41:40+00:00</Time><DistanceMeters>303.3</DistanceMeters><Position><LatitudeDegrees>51.121394</LatitudeDegrees><LongitudeDegrees>2.643735</LongitudeDegrees></Position><AltitudeMeters>11.5</AltitudeMeters><Extensions><TPX xmlns="http://www.garmin.com/xmlschemas/ActivityExtension/v2"><Speed>3.02</Speed></TPX></Extensions></Trackpoint><Trackpoint><Time>2026-04-06T07:41:41+00:00</Time><DistanceMeters>306.2</DistanceMeters><Position><LatitudeDegrees>51.121393</LatitudeDegrees><LongitudeDegrees>2.643673</LongitudeDegrees></Position><AltitudeMeters>11.4</AltitudeMeters><Extensions><TPX xmlns="http://www.garmin.com/xmlschemas/ActivityExtension/v2"><Speed>2.99</Speed></TPX></Extensions></Trackpoint><Trackpoint><Time>2026-04-06T07:41:42+00:00</Time><DistanceMeters>309.0</DistanceMeters><Position><LatitudeDegrees>51.121392</LatitudeDegrees><LongitudeDegrees>2.643653</LongitudeDegrees></Position><AltitudeMeters>11.4</AltitudeMeters><Extensions><TPX xmlns="http://www.garmin.com/xmlschemas/ActivityExtension/v2"><Speed>2.96</Speed></TPX></Extensions></Trackpoint><Trackpoint><Time>2026-04-06T07:41:43+00:00</Time><DistanceMeters>311.7</DistanceMeters><Position><LatitudeDegrees>51.121392</LatitudeDegrees><LongitudeDegrees>2.643594</LongitudeDegrees></Position><AltitudeMeters>11.3</AltitudeMeters><Extensions><TPX xmlns="http://www.garmin.com/xmlschemas/ActivityExtension/v2"><Speed>2.88</Speed></TPX></Extensions></Trackpoint><Trackpoint><Time>2026-04-06T07:41:44+00:00</Time><DistanceMeters>314.4</DistanceMeters><Position><LatitudeDegrees>51.121392</LatitudeDegrees><LongitudeDegrees>2.643575</LongitudeDegrees></Position><AltitudeMeters>11.3</AltitudeMeters><Extensions><TPX xmlns="http://www.garmin.com/xmlschemas/ActivityExtension/v2"><Speed>2.82</Speed></TPX></Extensions></Trackpoint><Trackpoint><Time>2026-04-06T07:41:45+00:00</Time><DistanceMeters>317.6</DistanceMeters><Position><LatitudeDegrees>51.121395</LatitudeDegrees><LongitudeDegrees>2.64353</LongitudeDegrees></Position><AltitudeMeters>11.2</AltitudeMeters><Extensions><TPX xmlns="http://www.garmin.com/xmlschemas/ActivityExtension/v2"><Speed>2.86</Speed></TPX></Extensions></Trackpoint><Trackpoint><Time>2026-04-06T07:41:46+00:00</Time><DistanceMeters>320.4</DistanceMeters><Position><LatitudeDegrees>51.121395</LatitudeDegrees><LongitudeDegrees>2.643469</LongitudeDegrees></Position><AltitudeMeters>11.2</AltitudeMeters><Extensions><TPX xmlns="http://www.garmin.com/xmlschemas/ActivityExtension/v2"><Speed>2.85</Speed></TPX></Extensions></Trackpoint><Trackpoint><Time>2026-04-06T07:41:47+00:00</Time><DistanceMeters>323.2</DistanceMeters><Position><LatitudeDegrees>51.121395</LatitudeDegrees><LongitudeDegrees>2.643449</LongitudeDegrees></Position><AltitudeMeters>11.1</AltitudeMeters><Extensions><TPX xmlns="http://www.garmin.com/xmlschemas/ActivityExtension/v2"><Speed>2.84</Speed></TPX></Extensions></Trackpoint><Trackpoint><Time>2026-04-06T07:41:48+00:00</Time><DistanceMeters>326.2</DistanceMeters><Position><LatitudeDegrees>51.121395</LatitudeDegrees><LongitudeDegrees>2.643406</LongitudeDegrees></Position><AltitudeMeters>11.1</AltitudeMeters><Extensions><TPX xmlns="http://www.garmin.com/xmlschemas/ActivityExtension/v2"><Speed>2.9</Speed></TPX></Extensions></Trackpoint><Trackpoint><Time>2026-04-06T07:41:49+00:00</Time><DistanceMeters>329.0</DistanceMeters><Position><LatitudeDegrees>51.121393</LatitudeDegrees><LongitudeDegrees>2.643345</LongitudeDegrees></Position><AltitudeMeters>11.0</AltitudeMeters><Extensions><TPX xmlns="http://www.garmin.com/xmlschemas/ActivityExtension/v2"><Speed>2.92</Speed></TPX></Extensions></Trackpoint><Trackpoint><Time>2026-04-06T07:41:50+00:00</Time><DistanceMeters>331.8</DistanceMeters><Position><LatitudeDegrees>51.121392</LatitudeDegrees><LongitudeDegrees>2.643326</LongitudeDegrees></Position><AltitudeMeters>11.0</AltitudeMeters><Extensions><TPX xmlns="http://www.garmin.com/xmlschemas/ActivityExtension/v2"><Speed>2.84</Speed></TPX></Extensions></Trackpoint><Trackpoint><Time>2026-04-06T07:41:51+00:00</Time><DistanceMeters>335.0</DistanceMeters><Position><LatitudeDegrees>51.121392</LatitudeDegrees><LongitudeDegrees>2.643281</LongitudeDegrees></Position><AltitudeMeters>10.9</AltitudeMeters><Extensions><TPX xmlns="http://www.garmin.com/xmlschemas/ActivityExtension/v2"><Speed>2.92</Speed></TPX></Extensions></Trackpoint><Trackpoint><Time>2026-04-06T07:41:52+00:00</Time><DistanceMeters>337.9</DistanceMeters><Position><LatitudeDegrees>51.121388</LatitudeDegrees><LongitudeDegrees>2.643221</LongitudeDegrees></Position><AltitudeMeters>10.8</AltitudeMeters><Extensions><TPX xmlns="http://www.garmin.com/xmlschemas/ActivityExtension/v2"><Speed>2.94</Speed></TPX></Extensions></Trackpoint><Trackpoint><Time>2026-04-06T07:41:53+00:00</Time><DistanceMeters>340.8</DistanceMeters><Position><LatitudeDegrees>51.121385</LatitudeDegrees><LongitudeDegrees>2.643199</LongitudeDegrees></Position><AltitudeMeters>10.8</AltitudeMeters><Extensions><TPX xmlns="http://www.garmin.com/xmlschemas/ActivityExtension/v2"><Speed>2.92</Speed></TPX></Extensions></Trackpoint><Trackpoint><Time>2026-04-06T07:41:54+00:00</Time><DistanceMeters>343.7</DistanceMeters><Position><LatitudeDegrees>51.121384</LatitudeDegrees><LongitudeDegrees>2.643138</LongitudeDegrees></Position><AltitudeMeters>10.7</AltitudeMeters><Extensions><TPX xmlns="http://www.garmin.com/xmlschemas/ActivityExtension/v2"><Speed>2.93</Speed></TPX></Extensions></Trackpoint><Trackpoint><Time>2026-04-06T07:41:55+00:00</Time><DistanceMeters>346.5</DistanceMeters><Position><LatitudeDegrees>51.121384</LatitudeDegrees><LongitudeDegrees>2.643117</LongitudeDegrees></Position><AltitudeMeters>10.6</AltitudeMeters><Extensions><TPX xmlns="http://www.garmin.com/xmlschemas/ActivityExtension/v2"><Speed>2.94</Speed></TPX></Extensions></Trackpoint><Trackpoint><Time>2026-04-06T07:41:56+00:00</Time><DistanceMeters>350.0</DistanceMeters><Position><LatitudeDegrees>51.121388</LatitudeDegrees><LongitudeDegrees>2.643047</LongitudeDegrees></Position><AltitudeMeters>10.5</AltitudeMeters><Extensions><TPX xmlns="http://www.garmin.com/xmlschemas/ActivityExtension/v2"><Speed>2.99</Speed></TPX></Extensions></Trackpoint><Trackpoint><Time>2026-04-06T07:41:57+00:00</Time><DistanceMeters>353.4</DistanceMeters><Position><LatitudeDegrees>51.121391</LatitudeDegrees><LongitudeDegrees>2.643018</LongitudeDegrees></Position><AltitudeMeters>10.5</AltitudeMeters><Extensions><TPX xmlns="http://www.garmin.com/xmlschemas/ActivityExtension/v2"><Speed>3.1</Speed></TPX></Extensions></Trackpoint><Trackpoint><Time>2026-04-06T07:41:58+00:00</Time><DistanceMeters>356.9</DistanceMeters><Position><LatitudeDegrees>51.121395</LatitudeDegrees><LongitudeDegrees>2.642968</LongitudeDegrees></Position><AltitudeMeters>10.4</AltitudeMeters><Extensions><TPX xmlns="http://www.garmin.com/xmlschemas/ActivityExtension/v2"><Speed>3.22</Speed></TPX></Extensions></Trackpoint><Trackpoint><Time>2026-04-06T07:41:59+00:00</Time><DistanceMeters>359.7</DistanceMeters><Position><LatitudeDegrees>51.121395</LatitudeDegrees><LongitudeDegrees>2.642929</LongitudeDegrees></Position><AltitudeMeters>10.3</AltitudeMeters><Extensions><TPX xmlns="http://www.garmin.com/xmlschemas/ActivityExtension/v2"><Speed>3.2</Speed></TPX></Extensions></Trackpoint><Trackpoint><Time>2026-04-06T07:42:00+00:00</Time><DistanceMeters>362.4</DistanceMeters><Position><LatitudeDegrees>51.121395</LatitudeDegrees><LongitudeDegrees>2.642889</LongitudeDegrees></Position><AltitudeMeters>10.3</AltitudeMeters><Extensions><TPX xmlns="http://www.garmin.com/xmlschemas/ActivityExtension/v2"><Speed>3.18</Speed></TPX></Extensions></Trackpoint><Trackpoint><Time>2026-04-06T07:42:01+00:00</Time><DistanceMeters>366.3</DistanceMeters><Position><LatitudeDegrees>51.121398</LatitudeDegrees><LongitudeDegrees>2.642834</LongitudeDegrees></Position><AltitudeMeters>10.2</AltitudeMeters><Extensions><TPX xmlns="http://www.garmin.com/xmlschemas/ActivityExtension/v2"><Speed>3.27</Speed></TPX></Extensions></Trackpoint><Trackpoint><Time>2026-04-06T07:42:02+00:00</Time><DistanceMeters>369.0</DistanceMeters><Position><LatitudeDegrees>51.121405</LatitudeDegrees><LongitudeDegrees>2.642779</LongitudeDegrees></Position><AltitudeMeters>10.1</AltitudeMeters><Extensions><TPX xmlns="http://www.garmin.com/xmlschemas/ActivityExtension/v2"><Speed>3.11</Speed></TPX></Extensions></Trackpoint><Trackpoint><Time>2026-04-06T07:42:03+00:00</Time><DistanceMeters>371.6</DistanceMeters><Position><LatitudeDegrees>51.121406</LatitudeDegrees><LongitudeDegrees>2.642759</LongitudeDegrees></Position><AltitudeMeters>10.0</AltitudeMeters><Extensions><TPX xmlns="http://www.garmin.com/xmlschemas/ActivityExtension/v2"><Speed>2.94</Speed></TPX></Extensions></Trackpoint><Trackpoint><Time>2026-04-06T07:42:04+00:00</Time><DistanceMeters>374.5</DistanceMeters><Position><LatitudeDegrees>51.121411</LatitudeDegrees><LongitudeDegrees>2.642698</LongitudeDegrees></Position><AltitudeMeters>9.9</AltitudeMeters><Extensions><TPX xmlns="http://www.garmin.com/xmlschemas/ActivityExtension/v2"><Speed>2.97</Speed></TPX></Extensions></Trackpoint><Trackpoint><Time>2026-04-06T07:42:05+00:00</Time><DistanceMeters>377.4</DistanceMeters><Position><LatitudeDegrees>51.121412</LatitudeDegrees><LongitudeDegrees>2.642676</LongitudeDegrees></Position><AltitudeMeters>9.9</AltitudeMeters><Extensions><TPX xmlns="http://www.garmin.com/xmlschemas/ActivityExtension/v2"><Speed>3.0</Speed></TPX></Extensions></Trackpoint><Trackpoint><Time>2026-04-06T07:42:06+00:00</Time><DistanceMeters>380.4</DistanceMeters><Position><LatitudeDegrees>51.121413</LatitudeDegrees><LongitudeDegrees>2.642633</LongitudeDegrees></Position><AltitudeMeters>9.8</AltitudeMeters><Extensions><TPX xmlns="http://www.garmin.com/xmlschemas/ActivityExtension/v2"><Speed>2.82</Speed></TPX></Extensions></Trackpoint><Trackpoint><Time>2026-04-06T07:42:07+00:00</Time><DistanceMeters>383.5</DistanceMeters><Position><LatitudeDegrees>51.121416</LatitudeDegrees><LongitudeDegrees>2.642589</LongitudeDegrees></Position><AltitudeMeters>9.8</AltitudeMeters><Extensions><TPX xmlns="http://www.garmin.com/xmlschemas/ActivityExtension/v2"><Speed>2.91</Speed></TPX></Extensions></Trackpoint><Trackpoint><Time>2026-04-06T07:42:08+00:00</Time><DistanceMeters>386.7</DistanceMeters><Position><LatitudeDegrees>51.121417</LatitudeDegrees><LongitudeDegrees>2.642524</LongitudeDegrees></Position><AltitudeMeters>9.7</AltitudeMeters><Extensions><TPX xmlns="http://www.garmin.com/xmlschemas/ActivityExtension/v2"><Speed>3.02</Speed></TPX></Extensions></Trackpoint><Trackpoint><Time>2026-04-06T07:42:09+00:00</Time><DistanceMeters>389.9</DistanceMeters><Position><LatitudeDegrees>51.121418</LatitudeDegrees><LongitudeDegrees>2.642497</LongitudeDegrees></Position><AltitudeMeters>9.6</AltitudeMeters><Extensions><TPX xmlns="http://www.garmin.com/xmlschemas/ActivityExtension/v2"><Speed>3.08</Speed></TPX></Extensions></Trackpoint><Trackpoint><Time>2026-04-06T07:42:10+00:00</Time><DistanceMeters>393.1</DistanceMeters><Position><LatitudeDegrees>51.121419</LatitudeDegrees><LongitudeDegrees>2.642452</LongitudeDegrees></Position><AltitudeMeters>9.5</AltitudeMeters><Extensions><TPX xmlns="http://www.garmin.com/xmlschemas/ActivityExtension/v2"><Speed>3.14</Speed></TPX></Extensions></Trackpoint><Trackpoint><Time>2026-04-06T07:42:11+00:00</Time><DistanceMeters>397.7</DistanceMeters><Position><LatitudeDegrees>51.121426</LatitudeDegrees><LongitudeDegrees>2.642387</LongitudeDegrees></Position><AltitudeMeters>9.4</AltitudeMeters><Extensions><TPX xmlns="http://www.garmin.com/xmlschemas/ActivityExtension/v2"><Speed>3.46</Speed></TPX></Extensions></Trackpoint><Trackpoint><Time>2026-04-06T07:42:12+00:00</Time><DistanceMeters>400.0</DistanceMeters><Position><LatitudeDegrees>51.121434</LatitudeDegrees><LongitudeDegrees>2.642361</LongitudeDegrees></Position><AltitudeMeters>9.4</AltitudeMeters><Extensions><TPX xmlns="http://www.garmin.com/xmlschemas/ActivityExtension/v2"><Speed>3.307</Speed></TPX></Extensions></Trackpoint><Trackpoint><Time>2026-04-06T07:42:13+00:00</Time><DistanceMeters>402.4</DistanceMeters><Position><LatitudeDegrees>51.121447</LatitudeDegrees><LongitudeDegrees>2.642332</LongitudeDegrees></Position><AltitudeMeters>9.3</AltitudeMeters><Extensions><TPX xmlns="http://www.garmin.com/xmlschemas/ActivityExtension/v2"><Speed>3.133</Speed></TPX></Extensions></Trackpoint><Trackpoint><Time>2026-04-06T07:42:14+00:00</Time><DistanceMeters>404.7</DistanceMeters><Position><LatitudeDegrees>51.121459</LatitudeDegrees><LongitudeDegrees>2.642302</LongitudeDegrees></Position><AltitudeMeters>9.2</AltitudeMeters><Extensions><TPX xmlns="http://www.garmin.com/xmlschemas/ActivityExtension/v2"><Speed>2.96</Speed></TPX></Extensions></Trackpoint><Trackpoint><Time>2026-04-06T07:42:15+00:00</Time><DistanceMeters>408.1</DistanceMeters><Position><LatitudeDegrees>51.121486</LatitudeDegrees><LongitudeDegrees>2.64228</LongitudeDegrees></Position><AltitudeMeters>9.3</AltitudeMeters><Extensions><TPX xmlns="http://www.garmin.com/xmlschemas/ActivityExtension/v2"><Speed>3.0</Speed></TPX></Extensions></Trackpoint><Trackpoint><Time>2026-04-06T07:42:16+00:00</Time><DistanceMeters>412.6</DistanceMeters><Position><LatitudeDegrees>51.121527</LatitudeDegrees><LongitudeDegrees>2.64228</LongitudeDegrees></Position><AltitudeMeters>9.3</AltitudeMeters><Extensions><TPX xmlns="http://www.garmin.com/xmlschemas/ActivityExtension/v2"><Speed>2.98</Speed></TPX></Extensions></Trackpoint><Trackpoint><Time>2026-04-06T07:42:17+00:00</Time><DistanceMeters>415.0</DistanceMeters><Position><LatitudeDegrees>51.121556</LatitudeDegrees><LongitudeDegrees>2.642294</LongitudeDegrees></Position><AltitudeMeters>9.3</AltitudeMeters><Extensions><TPX xmlns="http://www.garmin.com/xmlschemas/ActivityExtension/v2"><Speed>2.983</Speed></TPX></Extensions></Trackpoint><Trackpoint><Time>2026-04-06T07:42:18+00:00</Time><DistanceMeters>417.3</DistanceMeters><Position><LatitudeDegrees>51.121568</LatitudeDegrees><LongitudeDegrees>2.642299</LongitudeDegrees></Position><AltitudeMeters>9.3</AltitudeMeters><Extensions><TPX xmlns="http://www.garmin.com/xmlschemas/ActivityExtension/v2"><Speed>2.987</Speed></TPX></Extensions></Trackpoint><Trackpoint><Time>2026-04-06T07:42:19+00:00</Time><DistanceMeters>420.1</DistanceMeters><Position><LatitudeDegrees>51.121603</LatitudeDegrees><LongitudeDegrees>2.642319</LongitudeDegrees></Position><AltitudeMeters>9.3</AltitudeMeters><Extensions><TPX xmlns="http://www.garmin.com/xmlschemas/ActivityExtension/v2"><Speed>3.08</Speed></TPX></Extensions></Trackpoint><Trackpoint><Time>2026-04-06T07:42:20+00:00</Time><DistanceMeters>422.9</DistanceMeters><Position><LatitudeDegrees>51.121615</LatitudeDegrees><LongitudeDegrees>2.642327</LongitudeDegrees></Position><AltitudeMeters>9.4</AltitudeMeters><Extensions><TPX xmlns="http://www.garmin.com/xmlschemas/ActivityExtension/v2"><Speed>2.96</Speed></TPX></Extensions></Trackpoint><Trackpoint><Time>2026-04-06T07:42:21+00:00</Time><DistanceMeters>425.9</DistanceMeters><Position><LatitudeDegrees>51.121641</LatitudeDegrees><LongitudeDegrees>2.642337</LongitudeDegrees></Position><AltitudeMeters>9.4</AltitudeMeters><Extensions><TPX xmlns="http://www.garmin.com/xmlschemas/ActivityExtension/v2"><Speed>2.66</Speed></TPX></Extensions></Trackpoint><Trackpoint><Time>2026-04-06T07:42:22+00:00</Time><DistanceMeters>429.1</DistanceMeters><Position><LatitudeDegrees>51.121669</LatitudeDegrees><LongitudeDegrees>2.642341</LongitudeDegrees></Position><AltitudeMeters>9.4</AltitudeMeters><Extensions><TPX xmlns="http://www.garmin.com/xmlschemas/ActivityExtension/v2"><Speed>2.83</Speed></TPX></Extensions></Trackpoint><Trackpoint><Time>2026-04-06T07:42:23+00:00</Time><DistanceMeters>432.2</DistanceMeters><Position><LatitudeDegrees>51.121697</LatitudeDegrees><LongitudeDegrees>2.642343</LongitudeDegrees></Position><AltitudeMeters>9.4</AltitudeMeters><Extensions><TPX xmlns="http://www.garmin.com/xmlschemas/ActivityExtension/v2"><Speed>2.98</Speed></TPX></Extensions></Trackpoint><Trackpoint><Time>2026-04-06T07:42:24+00:00</Time><DistanceMeters>435.3</DistanceMeters><Position><LatitudeDegrees>51.121725</LatitudeDegrees><LongitudeDegrees>2.642347</LongitudeDegrees></Position><AltitudeMeters>9.4</AltitudeMeters><Extensions><TPX xmlns="http://www.garmin.com/xmlschemas/ActivityExtension/v2"><Speed>3.04</Speed></TPX></Extensions></Trackpoint><Trackpoint><Time>2026-04-06T07:42:25+00:00</Time><DistanceMeters>438.7</DistanceMeters><Position><LatitudeDegrees>51.121767</LatitudeDegrees><LongitudeDegrees>2.642364</LongitudeDegrees></Position><AltitudeMeters>9.5</AltitudeMeters><Extensions><TPX xmlns="http://www.garmin.com/xmlschemas/ActivityExtension/v2"><Speed>3.15</Speed></TPX></Extensions></Trackpoint><Trackpoint><Time>2026-04-06T07:42:26+00:00</Time><DistanceMeters>442.0</DistanceMeters><Position><LatitudeDegrees>51.121783</LatitudeDegrees><LongitudeDegrees>2.642373</LongitudeDegrees></Position><AltitudeMeters>9.5</AltitudeMeters><Extensions><TPX xmlns="http://www.garmin.com/xmlschemas/ActivityExtension/v2"><Speed>3.22</Speed></TPX></Extensions></Trackpoint><Trackpoint><Time>2026-04-06T07:42:27+00:00</Time><DistanceMeters>445.6</DistanceMeters><Position><LatitudeDegrees>51.121814</LatitudeDegrees><LongitudeDegrees>2.642392</LongitudeDegrees></Position><AltitudeMeters>9.6</AltitudeMeters><Extensions><TPX xmlns="http://www.garmin.com/xmlschemas/ActivityExtension/v2"><Speed>3.3</Speed></TPX></Extensions></Trackpoint><Trackpoint><Time>2026-04-06T07:42:28+00:00</Time><DistanceMeters>448.7</DistanceMeters><Position><LatitudeDegrees>51.121841</LatitudeDegrees><LongitudeDegrees>2.642401</LongitudeDegrees></Position><AltitudeMeters>9.6</AltitudeMeters><Extensions><TPX xmlns="http://www.garmin.com/xmlschemas/ActivityExtension/v2"><Speed>3.3</Speed></TPX></Extensions></Trackpoint><Trackpoint><Time>2026-04-06T07:42:29+00:00</Time><DistanceMeters>452.3</DistanceMeters><Position><LatitudeDegrees>51.121871</LatitudeDegrees><LongitudeDegrees>2.642415</LongitudeDegrees></Position><AltitudeMeters>9.7</AltitudeMeters><Extensions><TPX xmlns="http://www.garmin.com/xmlschemas/ActivityExtension/v2"><Speed>3.4</Speed></TPX></Extensions></Trackpoint><Trackpoint><Time>2026-04-06T07:42:30+00:00</Time><DistanceMeters>455.6</DistanceMeters><Position><LatitudeDegrees>51.121901</LatitudeDegrees><LongitudeDegrees>2.642421</LongitudeDegrees></Position><AltitudeMeters>9.7</AltitudeMeters><Extensions><TPX xmlns="http://www.garmin.com/xmlschemas/ActivityExtension/v2"><Speed>3.39</Speed></TPX></Extensions></Trackpoint><Trackpoint><Time>2026-04-06T07:42:31+00:00</Time><DistanceMeters>459.2</DistanceMeters><Position><LatitudeDegrees>51.121933</LatitudeDegrees><LongitudeDegrees>2.642428</LongitudeDegrees></Position><AltitudeMeters>9.8</AltitudeMeters><Extensions><TPX xmlns="http://www.garmin.com/xmlschemas/ActivityExtension/v2"><Speed>3.44</Speed></TPX></Extensions></Trackpoint><Trackpoint><Time>2026-04-06T07:42:32+00:00</Time><DistanceMeters>462.0</DistanceMeters><Position><LatitudeDegrees>51.121969</LatitudeDegrees><LongitudeDegrees>2.642435</LongitudeDegrees></Position><AltitudeMeters>9.8</AltitudeMeters><Extensions><TPX xmlns="http://www.garmin.com/xmlschemas/ActivityExtension/v2"><Speed>3.27</Speed></TPX></Extensions></Trackpoint><Trackpoint><Time>2026-04-06T07:42:33+00:00</Time><DistanceMeters>464.7</DistanceMeters><Position><LatitudeDegrees>51.121982</LatitudeDegrees><LongitudeDegrees>2.642438</LongitudeDegrees></Position><AltitudeMeters>9.9</AltitudeMeters><Extensions><TPX xmlns="http://www.garmin.com/xmlschemas/ActivityExtension/v2"><Speed>3.2</Speed></TPX></Extensions></Trackpoint><Trackpoint><Time>2026-04-06T07:42:34+00:00</Time><DistanceMeters>467.3</DistanceMeters><Position><LatitudeDegrees>51.122017</LatitudeDegrees><LongitudeDegrees>2.642444</LongitudeDegrees></Position><AltitudeMeters>9.9</AltitudeMeters><Extensions><TPX xmlns="http://www.garmin.com/xmlschemas/ActivityExtension/v2"><Speed>3.0</Speed></TPX></Extensions></Trackpoint><Trackpoint><Time>2026-04-06T07:42:35+00:00</Time><DistanceMeters>469.9</DistanceMeters><Position><LatitudeDegrees>51.122028</LatitudeDegrees><LongitudeDegrees>2.642446</LongitudeDegrees></Position><AltitudeMeters>10.0</AltitudeMeters><Extensions><TPX xmlns="http://www.garmin.com/xmlschemas/ActivityExtension/v2"><Speed>2.86</Speed></TPX></Extensions></Trackpoint><Trackpoint><Time>2026-04-06T07:42:36+00:00</Time><DistanceMeters>473.1</DistanceMeters><Position><LatitudeDegrees>51.122069</LatitudeDegrees><LongitudeDegrees>2.642455</LongitudeDegrees></Position><AltitudeMeters>10.0</AltitudeMeters><Extensions><TPX xmlns="http://www.garmin.com/xmlschemas/ActivityExtension/v2"><Speed>2.77</Speed></TPX></Extensions></Trackpoint><Trackpoint><Time>2026-04-06T07:42:37+00:00</Time><DistanceMeters>476.2</DistanceMeters><Position><LatitudeDegrees>51.122084</LatitudeDegrees><LongitudeDegrees>2.642459</LongitudeDegrees></Position><AltitudeMeters>10.1</AltitudeMeters><Extensions><TPX xmlns="http://www.garmin.com/xmlschemas/ActivityExtension/v2"><Speed>2.85</Speed></TPX></Extensions></Trackpoint><Trackpoint><Time>2026-04-06T07:42:38+00:00</Time><DistanceMeters>479.7</DistanceMeters><Position><LatitudeDegrees>51.122116</LatitudeDegrees><LongitudeDegrees>2.642467</LongitudeDegrees></Position><AltitudeMeters>10.1</AltitudeMeters><Extensions><TPX xmlns="http://www.garmin.com/xmlschemas/ActivityExtension/v2"><Speed>3.0</Speed></TPX></Extensions></Trackpoint><Trackpoint><Time>2026-04-06T07:42:39+00:00</Time><DistanceMeters>479.7</DistanceMeters><Position><LatitudeDegrees>51.122116</LatitudeDegrees><LongitudeDegrees>2.642467</LongitudeDegrees></Position><AltitudeMeters>10.1</AltitudeMeters><Extensions><TPX xmlns="http://www.garmin.com/xmlschemas/ActivityExtension/v2"><Speed>2.48</Speed></TPX></Extensions></Trackpoint><Trackpoint><Time>2026-04-06T07:42:40+00:00</Time><DistanceMeters>483.3</DistanceMeters><Position><LatitudeDegrees>51.122148</LatitudeDegrees><LongitudeDegrees>2.642473</LongitudeDegrees></Position><AltitudeMeters>10.2</AltitudeMeters><Extensions><TPX xmlns="http://www.garmin.com/xmlschemas/ActivityExtension/v2"><Speed>2.68</Speed></TPX></Extensions></Trackpoint><Trackpoint><Time>2026-04-06T07:42:41+00:00</Time><DistanceMeters>487.0</DistanceMeters><Position><LatitudeDegrees>51.122181</LatitudeDegrees><LongitudeDegrees>2.642481</LongitudeDegrees></Position><AltitudeMeters>10.2</AltitudeMeters><Extensions><TPX xmlns="http://www.garmin.com/xmlschemas/ActivityExtension/v2"><Speed>2.79</Speed></TPX></Extensions></Trackpoint><Trackpoint><Time>2026-04-06T07:42:42+00:00</Time><DistanceMeters>490.1</DistanceMeters><Position><LatitudeDegrees>51.122208</LatitudeDegrees><LongitudeDegrees>2.642489</LongitudeDegrees></Position><AltitudeMeters>10.2</AltitudeMeters><Extensions><TPX xmlns="http://www.garmin.com/xmlschemas/ActivityExtension/v2"><Speed>2.78</Speed></TPX></Extensions></Trackpoint><Trackpoint><Time>2026-04-06T07:42:43+00:00</Time><DistanceMeters>493.0</DistanceMeters><Position><LatitudeDegrees>51.122247</LatitudeDegrees><LongitudeDegrees>2.642495</LongitudeDegrees></Position><AltitudeMeters>10.3</AltitudeMeters><Extensions><TPX xmlns="http://www.garmin.com/xmlschemas/ActivityExtension/v2"><Speed>2.65</Speed></TPX></Extensions></Trackpoint><Trackpoint><Time>2026-04-06T07:42:44+00:00</Time><DistanceMeters>495.8</DistanceMeters><Position><LatitudeDegrees>51.12226</LatitudeDegrees><LongitudeDegrees>2.642495</LongitudeDegrees></Position><AltitudeMeters>10.3</AltitudeMeters><Extensions><TPX xmlns="http://www.garmin.com/xmlschemas/ActivityExtension/v2"><Speed>3.22</Speed></TPX></Extensions></Trackpoint><Trackpoint><Time>2026-04-06T07:42:45+00:00</Time><DistanceMeters>498.8</DistanceMeters><Position><LatitudeDegrees>51.122287</LatitudeDegrees><LongitudeDegrees>2.642492</LongitudeDegrees></Position><AltitudeMeters>10.4</AltitudeMeters><Extensions><TPX xmlns="http://www.garmin.com/xmlschemas/ActivityExtension/v2"><Speed>3.1</Speed></TPX></Extensions></Trackpoint><Trackpoint><Time>2026-04-06T07:42:46+00:00</Time><DistanceMeters>502.0</DistanceMeters><Position><LatitudeDegrees>51.122314</LatitudeDegrees><LongitudeDegrees>2.642484</LongitudeDegrees></Position><AltitudeMeters>10.4</AltitudeMeters><Extensions><TPX xmlns="http://www.garmin.com/xmlschemas/ActivityExtension/v2"><Speed>3.0</Speed></TPX></Extensions></Trackpoint><Trackpoint><Time>2026-04-06T07:42:47+00:00</Time><DistanceMeters>504.9</DistanceMeters><Position><LatitudeDegrees>51.122354</LatitudeDegrees><LongitudeDegrees>2.642481</LongitudeDegrees></Position><AltitudeMeters>10.4</AltitudeMeters><Extensions><TPX xmlns="http://www.garmin.com/xmlschemas/ActivityExtension/v2"><Speed>2.96</Speed></TPX></Extensions></Trackpoint><Trackpoint><Time>2026-04-06T07:42:48+00:00</Time><DistanceMeters>507.8</DistanceMeters><Position><LatitudeDegrees>51.122367</LatitudeDegrees><LongitudeDegrees>2.642482</LongitudeDegrees></Position><AltitudeMeters>10.3</AltitudeMeters><Extensions><TPX xmlns="http://www.garmin.com/xmlschemas/ActivityExtension/v2"><Speed>2.97</Speed></TPX></Extensions></Trackpoint><Trackpoint><Time>2026-04-06T07:42:49+00:00</Time><DistanceMeters>511.9</DistanceMeters><Position><LatitudeDegrees>51.122403</LatitudeDegrees><LongitudeDegrees>2.64247</LongitudeDegrees></Position><AltitudeMeters>10.3</AltitudeMeters><Extensions><TPX xmlns="http://www.garmin.com/xmlschemas/ActivityExtension/v2"><Speed>3.22</Speed></TPX></Extensions></Trackpoint><Trackpoint><Time>2026-04-06T07:42:50+00:00</Time><DistanceMeters>514.2</DistanceMeters><Position><LatitudeDegrees>51.122431</LatitudeDegrees><LongitudeDegrees>2.64246</LongitudeDegrees></Position><AltitudeMeters>10.3</AltitudeMeters><Extensions><TPX xmlns="http://www.garmin.com/xmlschemas/ActivityExtension/v2"><Speed>3.07</Speed></TPX></Extensions></Trackpoint><Trackpoint><Time>2026-04-06T07:42:51+00:00</Time><DistanceMeters>516.4</DistanceMeters><Position><LatitudeDegrees>51.122443</LatitudeDegrees><LongitudeDegrees>2.642461</LongitudeDegrees></Position><AltitudeMeters>10.3</AltitudeMeters><Extensions><TPX xmlns="http://www.garmin.com/xmlschemas/ActivityExtension/v2"><Speed>2.88</Speed></TPX></Extensions></Trackpoint><Trackpoint><Time>2026-04-06T07:42:52+00:00</Time><DistanceMeters>519.5</DistanceMeters><Position><LatitudeDegrees>51.122471</LatitudeDegrees><LongitudeDegrees>2.642467</LongitudeDegrees></Position><AltitudeMeters>10.3</AltitudeMeters><Extensions><TPX xmlns="http://www.garmin.com/xmlschemas/ActivityExtension/v2"><Speed>2.92</Speed></TPX></Extensions></Trackpoint><Trackpoint><Time>2026-04-06T07:42:53+00:00</Time><DistanceMeters>522.8</DistanceMeters><Position><LatitudeDegrees>51.122513</LatitudeDegrees><LongitudeDegrees>2.642471</LongitudeDegrees></Position><AltitudeMeters>10.2</AltitudeMeters><Extensions><TPX xmlns="http://www.garmin.com/xmlschemas/ActivityExtension/v2"><Speed>3.0</Speed></TPX></Extensions></Trackpoint><Trackpoint><Time>2026-04-06T07:42:54+00:00</Time><DistanceMeters>526.1</DistanceMeters><Position><LatitudeDegrees>51.12253</LatitudeDegrees><LongitudeDegrees>2.642472</LongitudeDegrees></Position><AltitudeMeters>10.2</AltitudeMeters><Extensions><TPX xmlns="http://www.garmin.com/xmlschemas/ActivityExtension/v2"><Speed>2.84</Speed></TPX></Extensions></Trackpoint><Trackpoint><Time>2026-04-06T07:42:55+00:00</Time><DistanceMeters>528.9</DistanceMeters><Position><LatitudeDegrees>51.122567</LatitudeDegrees><LongitudeDegrees>2.64247</LongitudeDegrees></Position><AltitudeMeters>10.2</AltitudeMeters><Extensions><TPX xmlns="http://www.garmin.com/xmlschemas/ActivityExtension/v2"><Speed>2.95</Speed></TPX></Extensions></Trackpoint><Trackpoint><Time>2026-04-06T07:42:56+00:00</Time><DistanceMeters>531.7</DistanceMeters><Position><LatitudeDegrees>51.12258</LatitudeDegrees><LongitudeDegrees>2.642467</LongitudeDegrees></Position><AltitudeMeters>10.2</AltitudeMeters><Extensions><TPX xmlns="http://www.garmin.com/xmlschemas/ActivityExtension/v2"><Speed>3.06</Speed></TPX></Extensions></Trackpoint><Trackpoint><Time>2026-04-06T07:42:57+00:00</Time><DistanceMeters>534.7</DistanceMeters><Position><LatitudeDegrees>51.122619</LatitudeDegrees><LongitudeDegrees>2.642466</LongitudeDegrees></Position><AltitudeMeters>10.2</AltitudeMeters><Extensions><TPX xmlns="http://www.garmin.com/xmlschemas/ActivityExtension/v2"><Speed>3.04</Speed></TPX></Extensions></Trackpoint><Trackpoint><Time>2026-04-06T07:42:58+00:00</Time><DistanceMeters>537.7</DistanceMeters><Position><LatitudeDegrees>51.122634</LatitudeDegrees><LongitudeDegrees>2.642468</LongitudeDegrees></Position><AltitudeMeters>10.1</AltitudeMeters><Extensions><TPX xmlns="http://www.garmin.com/xmlschemas/ActivityExtension/v2"><Speed>2.98</Speed></TPX></Extensions></Trackpoint><Trackpoint><Time>2026-04-06T07:42:59+00:00</Time><DistanceMeters>541.2</DistanceMeters><Position><LatitudeDegrees>51.122666</LatitudeDegrees><LongitudeDegrees>2.642466</LongitudeDegrees></Position><AltitudeMeters>10.1</AltitudeMeters><Extensions><TPX xmlns="http://www.garmin.com/xmlschemas/ActivityExtension/v2"><Speed>3.02</Speed></TPX></Extensions></Trackpoint><Trackpoint><Time>2026-04-06T07:43:00+00:00</Time><DistanceMeters>544.5</DistanceMeters><Position><LatitudeDegrees>51.122708</LatitudeDegrees><LongitudeDegrees>2.64246</LongitudeDegrees></Position><AltitudeMeters>10.1</AltitudeMeters><Extensions><TPX xmlns="http://www.garmin.com/xmlschemas/ActivityExtension/v2"><Speed>3.11</Speed></TPX></Extensions></Trackpoint><Trackpoint><Time>2026-04-06T07:43:01+00:00</Time><DistanceMeters>547.7</DistanceMeters><Position><LatitudeDegrees>51.122724</LatitudeDegrees><LongitudeDegrees>2.642455</LongitudeDegrees></Position><AltitudeMeters>10.1</AltitudeMeters><Extensions><TPX xmlns="http://www.garmin.com/xmlschemas/ActivityExtension/v2"><Speed>3.2</Speed></TPX></Extensions></Trackpoint><Trackpoint><Time>2026-04-06T07:43:02+00:00</Time><DistanceMeters>550.4</DistanceMeters><Position><LatitudeDegrees>51.12276</LatitudeDegrees><LongitudeDegrees>2.642446</LongitudeDegrees></Position><AltitudeMeters>10.0</AltitudeMeters><Extensions><TPX xmlns="http://www.garmin.com/xmlschemas/ActivityExtension/v2"><Speed>3.14</Speed></TPX></Extensions></Trackpoint><Trackpoint><Time>2026-04-06T07:43:03+00:00</Time><DistanceMeters>553.1</DistanceMeters><Position><LatitudeDegrees>51.122771</LatitudeDegrees><LongitudeDegrees>2.642441</LongitudeDegrees></Position><AltitudeMeters>10.0</AltitudeMeters><Extensions><TPX xmlns="http://www.garmin.com/xmlschemas/ActivityExtension/v2"><Speed>3.08</Speed></TPX></Extensions></Trackpoint><Trackpoint><Time>2026-04-06T07:43:04+00:00</Time><DistanceMeters>553.1</DistanceMeters><Position><LatitudeDegrees>51.12279</LatitudeDegrees><LongitudeDegrees>2.642426</LongitudeDegrees></Position><AltitudeMeters>10.0</AltitudeMeters><Extensions><TPX xmlns="http://www.garmin.com/xmlschemas/ActivityExtension/v2"><Speed>2.38</Speed></TPX></Extensions></Trackpoint><Trackpoint><Time>2026-04-06T07:43:05+00:00</Time><DistanceMeters>556.8</DistanceMeters><Position><LatitudeDegrees>51.122795</LatitudeDegrees><LongitudeDegrees>2.642403</LongitudeDegrees></Position><AltitudeMeters>10.0</AltitudeMeters><Cadence>75</Cadence><Extensions><TPX xmlns="http://www.garmin.com/xmlschemas/ActivityExtension/v2"><Speed>2.47</Speed></TPX></Extensions></Trackpoint><Trackpoint><Time>2026-04-06T07:43:06+00:00</Time><DistanceMeters>556.8</DistanceMeters><Position><LatitudeDegrees>51.122799</LatitudeDegrees><LongitudeDegrees>2.642389</LongitudeDegrees></Position><AltitudeMeters>10.0</AltitudeMeters><Cadence>75</Cadence><Extensions><TPX xmlns="http://www.garmin.com/xmlschemas/ActivityExtension/v2"><Speed>1.82</Speed></TPX></Extensions></Trackpoint><Trackpoint><Time>2026-04-06T07:43:07+00:00</Time><DistanceMeters>556.8</DistanceMeters><Position><LatitudeDegrees>51.1228</LatitudeDegrees><LongitudeDegrees>2.642379</LongitudeDegrees></Position><AltitudeMeters>10.0</AltitudeMeters><Cadence>93</Cadence><Extensions><TPX xmlns="http://www.garmin.com/xmlschemas/ActivityExtension/v2"><Speed>1.28</Speed></TPX></Extensions></Trackpoint><Trackpoint><Time>2026-04-06T07:43:08+00:00</Time><DistanceMeters>556.8</DistanceMeters><Position><LatitudeDegrees>51.122802</LatitudeDegrees><LongitudeDegrees>2.642375</LongitudeDegrees></Position><AltitudeMeters>10.0</AltitudeMeters><Cadence>93</Cadence><Extensions><TPX xmlns="http://www.garmin.com/xmlschemas/ActivityExtension/v2"><Speed>0.74</Speed></TPX></Extensions></Trackpoint><Trackpoint><Time>2026-04-06T07:43:09+00:00</Time><DistanceMeters>556.8</DistanceMeters><Position><LatitudeDegrees>51.122806</LatitudeDegrees><LongitudeDegrees>2.64237</LongitudeDegrees></Position><AltitudeMeters>10.0</AltitudeMeters><Cadence>84</Cadence><Extensions><TPX xmlns="http://www.garmin.com/xmlschemas/ActivityExtension/v2"><Speed>0.74</Speed></TPX></Extensions></Trackpoint><Trackpoint><Time>2026-04-06T07:43:10+00:00</Time><DistanceMeters>556.8</DistanceMeters><Position><LatitudeDegrees>51.122809</LatitudeDegrees><LongitudeDegrees>2.642372</LongitudeDegrees></Position><AltitudeMeters>10.0</AltitudeMeters><Cadence>84</Cadence><Extensions><TPX xmlns="http://www.garmin.com/xmlschemas/ActivityExtension/v2"><Speed>0.0</Speed></TPX></Extensions></Trackpoint><Trackpoint><Time>2026-04-06T07:43:11+00:00</Time><DistanceMeters>556.8</DistanceMeters><Position><LatitudeDegrees>51.122814</LatitudeDegrees><LongitudeDegrees>2.642377</LongitudeDegrees></Position><AltitudeMeters>10.0</AltitudeMeters><Cadence>84</Cadence><Extensions><TPX xmlns="http://www.garmin.com/xmlschemas/ActivityExtension/v2"><Speed>0.0</Speed></TPX></Extensions></Trackpoint><Trackpoint><Time>2026-04-06T07:43:12+00:00</Time><DistanceMeters>559.9</DistanceMeters><Position><LatitudeDegrees>51.122817</LatitudeDegrees><LongitudeDegrees>2.642377</LongitudeDegrees></Position><AltitudeMeters>10.0</AltitudeMeters><Cadence>84</Cadence><Extensions><TPX xmlns="http://www.garmin.com/xmlschemas/ActivityExtension/v2"><Speed>0.62</Speed></TPX></Extensions></Trackpoint><Trackpoint><Time>2026-04-06T07:43:13+00:00</Time><DistanceMeters>559.9</DistanceMeters><Position><LatitudeDegrees>51.122816</LatitudeDegrees><LongitudeDegrees>2.642375</LongitudeDegrees></Position><AltitudeMeters>10.0</AltitudeMeters><Extensions><TPX xmlns="http://www.garmin.com/xmlschemas/ActivityExtension/v2"><Speed>0.62</Speed></TPX></Extensions></Trackpoint><Trackpoint><Time>2026-04-06T07:43:14+00:00</Time><DistanceMeters>559.9</DistanceMeters><Position><LatitudeDegrees>51.122815</LatitudeDegrees><LongitudeDegrees>2.64238</LongitudeDegrees></Position><AltitudeMeters>10.0</AltitudeMeters><Extensions><TPX xmlns="http://www.garmin.com/xmlschemas/ActivityExtension/v2"><Speed>0.62</Speed></TPX></Extensions></Trackpoint><Trackpoint><Time>2026-04-06T07:43:15+00:00</Time><DistanceMeters>559.9</DistanceMeters><Position><LatitudeDegrees>51.122815</LatitudeDegrees><LongitudeDegrees>2.64238</LongitudeDegrees></Position><AltitudeMeters>10.0</AltitudeMeters><Extensions><TPX xmlns="http://www.garmin.com/xmlschemas/ActivityExtension/v2"><Speed>0.62</Speed></TPX></Extensions></Trackpoint></Track></Lap></Activity></Activities></TrainingCenterDatabase>