<?xml version="1.0" encoding="UTF-8"?><TrainingCenterDatabase xsi:schemaLocation="http://www.garmin.com/xmlschemas/TrainingCenterDatabase/v2 http://www.garmin.com/xmlschemas/TrainingCenterDatabasev2.xsd" xmlns:ns5="http://www.garmin.com/xmlschemas/ActivityGoals/v1" xmlns:ns3="http://www.garmin.com/xmlschemas/ActivityExtension/v2" xmlns:ns2="http://www.garmin.com/xmlschemas/UserProfile/v2" xmlns="http://www.garmin.com/xmlschemas/TrainingCenterDatabase/v2" xmlns:xsi="http://www.w3.org/2001/XMLSchema-instance"><Activities><Activity Sport="Biking"><Id>2026-03-10T17:07:33+00:00</Id><Lap StartTime="2026-03-10T17:07:33+00:00"><TotalTimeSeconds>14537</TotalTimeSeconds><DistanceMeters>78.2</DistanceMeters><Track><Trackpoint><Time>2026-03-10T17:07:33+00:00</Time><Position><LatitudeDegrees>50.596897</LatitudeDegrees><LongitudeDegrees>3.05744</LongitudeDegrees></Position><AltitudeMeters>50.4</AltitudeMeters><Extensions><TPX xmlns="http://www.garmin.com/xmlschemas/ActivityExtension/v2"><Speed>0.0</Speed></TPX></Extensions></Trackpoint><Trackpoint><Time>2026-03-10T17:07:34+00:00</Time><DistanceMeters>1.7</DistanceMeters><Position><LatitudeDegrees>50.596918</LatitudeDegrees><LongitudeDegrees>3.057431</LongitudeDegrees></Position><AltitudeMeters>50.4</AltitudeMeters><Extensions><TPX xmlns="http://www.garmin.com/xmlschemas/ActivityExtension/v2"><Speed>1.733</Speed></TPX></Extensions></Trackpoint><Trackpoint><Time>2026-03-10T17:07:35+00:00</Time><DistanceMeters>3.5</DistanceMeters><Position><LatitudeDegrees>50.59693</LatitudeDegrees><LongitudeDegrees>3.057429</LongitudeDegrees></Position><AltitudeMeters>50.4</AltitudeMeters><Extensions><TPX xmlns="http://www.garmin.com/xmlschemas/ActivityExtension/v2"><Speed>1.733</Speed></TPX></Extensions></Trackpoint><Trackpoint><Time>2026-03-10T17:07:36+00:00</Time><DistanceMeters>5.2</DistanceMeters><Position><LatitudeDegrees>50.596943</LatitudeDegrees><LongitudeDegrees>3.057427</LongitudeDegrees></Position><AltitudeMeters>50.4</AltitudeMeters><Extensions><TPX xmlns="http://www.garmin.com/xmlschemas/ActivityExtension/v2"><Speed>1.733</Speed></TPX></Extensions></Trackpoint><Trackpoint><Time>2026-03-10T17:07:37+00:00</Time><DistanceMeters>8.1</DistanceMeters><Position><LatitudeDegrees>50.596982</LatitudeDegrees><LongitudeDegrees>3.057429</LongitudeDegrees></Position><AltitudeMeters>50.4</AltitudeMeters><Extensions><TPX xmlns="http://www.garmin.com/xmlschemas/ActivityExtension/v2"><Speed>2.025</Speed></TPX></Extensions></Trackpoint><Trackpoint><Time>2026-03-10T17:07:38+00:00</Time><DistanceMeters>11.0</DistanceMeters><Position><LatitudeDegrees>50.596995</LatitudeDegrees><LongitudeDegrees>3.05743</LongitudeDegrees></Position><AltitudeMeters>50.4</AltitudeMeters><Extensions><TPX xmlns="http://www.garmin.com/xmlschemas/ActivityExtension/v2"><Speed>2.2</Speed></TPX></Extensions></Trackpoint><Trackpoint><Time>2026-03-10T17:07:39+00:00</Time><DistanceMeters>13.9</DistanceMeters><Position><LatitudeDegrees>50.597033</LatitudeDegrees><LongitudeDegrees>3.05744</LongitudeDegrees></Position><AltitudeMeters>50.4</AltitudeMeters><Extensions><TPX xmlns="http://www.garmin.com/xmlschemas/ActivityExtension/v2"><Speed>2.423</Speed></TPX></Extensions></Trackpoint><Trackpoint><Time>2026-03-10T17:07:40+00:00</Time><DistanceMeters>16.7</DistanceMeters><Position><LatitudeDegrees>50.597046</LatitudeDegrees><LongitudeDegrees>3.057443</LongitudeDegrees></Position><AltitudeMeters>50.4</AltitudeMeters><Extensions><TPX xmlns="http://www.garmin.com/xmlschemas/ActivityExtension/v2"><Speed>2.647</Speed></TPX></Extensions></Trackpoint><Trackpoint><Time>2026-03-10T17:07:41+00:00</Time><DistanceMeters>19.8</DistanceMeters><Position><LatitudeDegrees>50.597073</LatitudeDegrees><LongitudeDegrees>3.05745</LongitudeDegrees></Position><AltitudeMeters>50.4</AltitudeMeters><Extensions><TPX xmlns="http://www.garmin.com/xmlschemas/ActivityExtension/v2"><Speed>2.92</Speed></TPX></Extensions></Trackpoint><Trackpoint><Time>2026-03-10T17:07:42+00:00</Time><DistanceMeters>22.5</DistanceMeters><Position><LatitudeDegrees>50.597108</LatitudeDegrees><LongitudeDegrees>3.057451</LongitudeDegrees></Position><AltitudeMeters>50.4</AltitudeMeters><Extensions><TPX xmlns="http://www.garmin.com/xmlschemas/ActivityExtension/v2"><Speed>2.87</Speed></TPX></Extensions></Trackpoint><Trackpoint><Time>2026-03-10T17:07:43+00:00</Time><DistanceMeters>25.1</DistanceMeters><Position><LatitudeDegrees>50.597121</LatitudeDegrees><LongitudeDegrees>3.057448</LongitudeDegrees></Position><AltitudeMeters>50.4</AltitudeMeters><Extensions><TPX xmlns="http://www.garmin.com/xmlschemas/ActivityExtension/v2"><Speed>2.82</Speed></TPX></Extensions></Trackpoint><Trackpoint><Time>2026-03-10T17:07:44+00:00</Time><DistanceMeters>27.2</DistanceMeters><Position><LatitudeDegrees>50.59715</LatitudeDegrees><LongitudeDegrees>3.057439</LongitudeDegrees></Position><AltitudeMeters>50.4</AltitudeMeters><Extensions><TPX xmlns="http://www.garmin.com/xmlschemas/ActivityExtension/v2"><Speed>2.67</Speed></TPX></Extensions></Trackpoint><Trackpoint><Time>2026-03-10T17:07:45+00:00</Time><DistanceMeters>29.3</DistanceMeters><Position><LatitudeDegrees>50.597158</LatitudeDegrees><LongitudeDegrees>3.057436</LongitudeDegrees></Position><AltitudeMeters>50.4</AltitudeMeters><Extensions><TPX xmlns="http://www.garmin.com/xmlschemas/ActivityExtension/v2"><Speed>2.52</Speed></TPX></Extensions></Trackpoint><Trackpoint><Time>2026-03-10T17:07:46+00:00</Time><DistanceMeters>33.1</DistanceMeters><Position><LatitudeDegrees>50.597192</LatitudeDegrees><LongitudeDegrees>3.057438</LongitudeDegrees></Position><AltitudeMeters>50.4</AltitudeMeters><Extensions><TPX xmlns="http://www.garmin.com/xmlschemas/ActivityExtension/v2"><Speed>2.66</Speed></TPX></Extensions></Trackpoint><Trackpoint><Time>2026-03-10T17:07:47+00:00</Time><DistanceMeters>36.5</DistanceMeters><Position><LatitudeDegrees>50.597221</LatitudeDegrees><LongitudeDegrees>3.05745</LongitudeDegrees></Position><AltitudeMeters>50.4</AltitudeMeters><Extensions><TPX xmlns="http://www.garmin.com/xmlschemas/ActivityExtension/v2"><Speed>2.81</Speed></TPX></Extensions></Trackpoint><Trackpoint><Time>2026-03-10T17:07:48+00:00</Time><DistanceMeters>39.2</DistanceMeters><Position><LatitudeDegrees>50.597258</LatitudeDegrees><LongitudeDegrees>3.057461</LongitudeDegrees></Position><AltitudeMeters>50.4</AltitudeMeters><Extensions><TPX xmlns="http://www.garmin.com/xmlschemas/ActivityExtension/v2"><Speed>2.81</Speed></TPX></Extensions></Trackpoint><Trackpoint><Time>2026-03-10T17:07:49+00:00</Time><DistanceMeters>41.8</DistanceMeters><Position><LatitudeDegrees>50.597268</LatitudeDegrees><LongitudeDegrees>3.057464</LongitudeDegrees></Position><AltitudeMeters>50.4</AltitudeMeters><Extensions><TPX xmlns="http://www.garmin.com/xmlschemas/ActivityExtension/v2"><Speed>2.92</Speed></TPX></Extensions></Trackpoint><Trackpoint><Time>2026-03-10T17:07:50+00:00</Time><DistanceMeters>44.4</DistanceMeters><Position><LatitudeDegrees>50.597302</LatitudeDegrees><LongitudeDegrees>3.057469</LongitudeDegrees></Position><AltitudeMeters>50.3</AltitudeMeters><Extensions><TPX xmlns="http://www.garmin.com/xmlschemas/ActivityExtension/v2"><Speed>3.02</Speed></TPX></Extensions></Trackpoint><Trackpoint><Time>2026-03-10T17:07:51+00:00</Time><DistanceMeters>47.0</DistanceMeters><Position><LatitudeDegrees>50.597315</LatitudeDegrees><LongitudeDegrees>3.057472</LongitudeDegrees></Position><AltitudeMeters>50.3</AltitudeMeters><Extensions><TPX xmlns="http://www.garmin.com/xmlschemas/ActivityExtension/v2"><Speed>2.78</Speed></TPX></Extensions></Trackpoint><Trackpoint><Time>2026-03-10T17:07:52+00:00</Time><DistanceMeters>50.0</DistanceMeters><Position><LatitudeDegrees>50.597352</LatitudeDegrees><LongitudeDegrees>3.057495</LongitudeDegrees></Position><AltitudeMeters>50.3</AltitudeMeters><Extensions><TPX xmlns="http://www.garmin.com/xmlschemas/ActivityExtension/v2"><Speed>2.69</Speed></TPX></Extensions></Trackpoint><Trackpoint><Time>2026-03-10T17:07:53+00:00</Time><DistanceMeters>52.9</DistanceMeters><Position><LatitudeDegrees>50.597364</LatitudeDegrees><LongitudeDegrees>3.057505</LongitudeDegrees></Position><AltitudeMeters>50.3</AltitudeMeters><Extensions><TPX xmlns="http://www.garmin.com/xmlschemas/ActivityExtension/v2"><Speed>2.75</Speed></TPX></Extensions></Trackpoint><Trackpoint><Time>2026-03-10T17:07:54+00:00</Time><DistanceMeters>55.7</DistanceMeters><Position><LatitudeDegrees>50.5974</LatitudeDegrees><LongitudeDegrees>3.057518</LongitudeDegrees></Position><AltitudeMeters>50.2</AltitudeMeters><Extensions><TPX xmlns="http://www.garmin.com/xmlschemas/ActivityExtension/v2"><Speed>2.78</Speed></TPX></Extensions></Trackpoint><Trackpoint><Time>2026-03-10T17:07:55+00:00</Time><DistanceMeters>58.5</DistanceMeters><Position><LatitudeDegrees>50.597414</LatitudeDegrees><LongitudeDegrees>3.057519</LongitudeDegrees></Position><AltitudeMeters>50.2</AltitudeMeters><Extensions><TPX xmlns="http://www.garmin.com/xmlschemas/ActivityExtension/v2"><Speed>2.82</Speed></TPX></Extensions></Trackpoint><Trackpoint><Time>2026-03-10T17:07:56+00:00</Time><DistanceMeters>61.4</DistanceMeters><Position><LatitudeDegrees>50.597449</LatitudeDegrees><LongitudeDegrees>3.057494</LongitudeDegrees></Position><AltitudeMeters>50.2</AltitudeMeters><Extensions><TPX xmlns="http://www.garmin.com/xmlschemas/ActivityExtension/v2"><Speed>2.88</Speed></TPX></Extensions></Trackpoint><Trackpoint><Time>2026-03-10T17:07:57+00:00</Time><DistanceMeters>64.3</DistanceMeters><Position><LatitudeDegrees>50.597461</LatitudeDegrees><LongitudeDegrees>3.057484</LongitudeDegrees></Position><AltitudeMeters>50.2</AltitudeMeters><Extensions><TPX xmlns="http://www.garmin.com/xmlschemas/ActivityExtension/v2"><Speed>2.87</Speed></TPX></Extensions></Trackpoint><Trackpoint><Time>2026-03-10T17:07:58+00:00</Time><DistanceMeters>68.3</DistanceMeters><Position><LatitudeDegrees>50.597481</LatitudeDegrees><LongitudeDegrees>3.057439</LongitudeDegrees></Position><AltitudeMeters>50.1</AltitudeMeters><Extensions><TPX xmlns="http://www.garmin.com/xmlschemas/ActivityExtension/v2"><Speed>3.08</Speed></TPX></Extensions></Trackpoint><Trackpoint><Time>2026-03-10T17:07:59+00:00</Time><DistanceMeters>71.1</DistanceMeters><Position><LatitudeDegrees>50.597515</LatitudeDegrees><LongitudeDegrees>3.057419</LongitudeDegrees></Position><AltitudeMeters>50.1</AltitudeMeters><Extensions><TPX xmlns="http://www.garmin.com/xmlschemas/ActivityExtension/v2"><Speed>3.08</Speed></TPX></Extensions></Trackpoint><Trackpoint><Time>2026-03-10T17:08:00+00:00</Time><DistanceMeters>73.9</DistanceMeters><Position><LatitudeDegrees>50.597527</LatitudeDegrees><LongitudeDegrees>3.057409</LongitudeDegrees></Position><AltitudeMeters>50.1</AltitudeMeters><Extensions><TPX xmlns="http://www.garmin.com/xmlschemas/ActivityExtension/v2"><Speed>3.08</Speed></TPX></Extensions></Trackpoint><Trackpoint><Time>2026-03-10T17:08:01+00:00</Time><DistanceMeters>75.3</DistanceMeters><Position><LatitudeDegrees>50.597536</LatitudeDegrees><LongitudeDegrees>3.057393</LongitudeDegrees></Position><AltitudeMeters>50.1</AltitudeMeters><Extensions><TPX xmlns="http://www.garmin.com/xmlschemas/ActivityExtension/v2"><Speed>2.787</Speed></TPX></Extensions></Trackpoint><Trackpoint><Time>2026-03-10T17:08:02+00:00</Time><DistanceMeters>76.8</DistanceMeters><Position><LatitudeDegrees>50.597551</LatitudeDegrees><LongitudeDegrees>3.057396</LongitudeDegrees></Position><AltitudeMeters>50.1</AltitudeMeters><Extensions><TPX xmlns="http://www.garmin.com/xmlschemas/ActivityExtension/v2"><Speed>2.493</Speed></TPX></Extensions></Trackpoint><Trackpoint><Time>2026-03-10T17:08:03+00:00</Time><DistanceMeters>78.2</DistanceMeters><Position><LatitudeDegrees>50.597566</LatitudeDegrees><LongitudeDegrees>3.057398</LongitudeDegrees></Position><AltitudeMeters>50.0</AltitudeMeters><Extensions><TPX xmlns="http://www.garmin.com/xmlschemas/ActivityExtension/v2"><Speed>1.98</Speed></TPX></Extensions></Trackpoint><Trackpoint><Time>2026-03-10T17:08:04+00:00</Time><DistanceMeters>78.2</DistanceMeters><Position><LatitudeDegrees>50.597586</LatitudeDegrees><LongitudeDegrees>3.057425</LongitudeDegrees></Position><AltitudeMeters>50.0</AltitudeMeters><Extensions><TPX xmlns="http://www.garmin.com/xmlschemas/ActivityExtension/v2"><Speed>1.42</Speed></TPX></Extensions></Trackpoint><Trackpoint><Time>2026-03-10T21:09:44+00:00</Time><DistanceMeters>115.5</DistanceMeters><Position><LatitudeDegrees>50.596822</LatitudeDegrees><LongitudeDegrees>3.057673</LongitudeDegrees></Position><AltitudeMeters>50.4</AltitudeMeters><Extensions><TPX xmlns="http://www.garmin.com/xmlschemas/ActivityExtension/v2"><Speed>0.003</Speed></TPX></Extensions></Trackpoint><Trackpoint><Time>2026-03-10T21:09:45+00:00</Time><DistanceMeters>115.5</DistanceMeters><Position><LatitudeDegrees>50.596822</LatitudeDegrees><LongitudeDegrees>3.057673</LongitudeDegrees></Position><AltitudeMeters>50.4</AltitudeMeters><Extensions><TPX xmlns="http://www.garmin.com/xmlschemas/ActivityExtension/v2"><Speed>0.003</Speed></TPX></Extensions></Trackpoint></Track></Lap></Activity></Activities></TrainingCenterDatabase>